id;id_fantoir;numero;rep;nom_voie;code_postal;code_insee;nom_commune;code_insee_ancienne_commune;nom_ancienne_commune;x;y;lon;lat;type_position;alias;nom_ld;libelle_acheminement;nom_afnor;source_position;source_nom_voie;certification_commune;cad_parcelles
64023_xc4mit_00001;;1;;Camy Meda;64510;64023;Angaïs;;;436022.99;6242479.49;-0.248415;43.23264;logement;;;ANGAIS;CAMY MEDA;commune;commune;1;640230000B1001|640230000B0265|640230000B0266
64023_xc4mit_00004;;4;;Camy Meda;64510;64023;Angaïs;;;436020.5;6242444.65;-0.248428;43.232326;logement;;;ANGAIS;CAMY MEDA;commune;commune;1;640230000B1825|64023000ZB0071
64023_xc4mit_00005;;5;;Camy Meda;64510;64023;Angaïs;;;436058.86;6242428.06;-0.247948;43.232191;logement;;;ANGAIS;CAMY MEDA;commune;commune;1;64023000ZB0070|640230000B1575|64023000ZB0098
64023_xc4mit_00059;;59;;Camy Meda;64510;64023;Angaïs;;;436387.86;6241917.17;-0.243646;43.227721;logement;;;ANGAIS;CAMY MEDA;commune;commune;1;640230000B1731
64023_qolsen_00001;;1;;Lotissement Bonnecaze;64510;64023;Angaïs;;;435819.9;6242237.84;-0.250789;43.230393;logement;;;ANGAIS;LOTISSEMENT BONNECAZE;commune;commune;1;640230000B1359
64023_qolsen_00002;;2;;Lotissement Bonnecaze;64510;64023;Angaïs;;;435793.88;6242212.54;-0.251096;43.230156;logement;;;ANGAIS;LOTISSEMENT BONNECAZE;commune;commune;1;640230000B1360
64023_qolsen_00003;;3;;Lotissement Bonnecaze;64510;64023;Angaïs;;;435769.34;6242195.53;-0.251389;43.229994;logement;;;ANGAIS;LOTISSEMENT BONNECAZE;commune;commune;1;640230000B1361
64023_qolsen_00004;;4;;Lotissement Bonnecaze;64510;64023;Angaïs;;;435769.26;6242195.53;-0.25139;43.229994;logement;;;ANGAIS;LOTISSEMENT BONNECAZE;commune;commune;1;640230000B1362
64023_0xv551_00001;;1;;Rue Las Clabades;64510;64023;Angaïs;;;435233.45;6243175.4;-0.258473;43.238602;logement;;;ANGAIS;RUE LAS CLABADES;commune;commune;1;640230000B1710|64023000ZA0116
64023_0xv551_00002;;2;;Rue Las Clabades;64510;64023;Angaïs;;;435275.58;6243157.64;-0.257946;43.238458;logement;;;ANGAIS;RUE LAS CLABADES;commune;commune;1;640230000B1666
64023_0xv551_00003;;3;;Rue Las Clabades;64510;64023;Angaïs;;;435252.7;6243188.62;-0.258243;43.238728;logement;;;ANGAIS;RUE LAS CLABADES;commune;commune;1;640230000B1711|64023000ZA0117
64023_0xv551_00004;;4;;Rue Las Clabades;64510;64023;Angaïs;;;435306.36;6243180.07;-0.257579;43.238671;logement;;;ANGAIS;RUE LAS CLABADES;commune;commune;1;640230000B1696|64023000ZA0104
64023_0xv551_00005;;5;;Rue Las Clabades;64510;64023;Angaïs;;;435272.55;6243208.17;-0.258009;43.238911;logement;;;ANGAIS;RUE LAS CLABADES;commune;commune;1;64023000ZA0102
64023_0xv551_00006;;6;;Rue Las Clabades;64510;64023;Angaïs;;;435334.44;6243196.15;-0.257242;43.238826;logement;;;ANGAIS;RUE LAS CLABADES;commune;commune;1;640230000B1707|64023000ZA0114
64023_0xv551_00007;;7;;Rue Las Clabades;64510;64023;Angaïs;;;435246.05;6243232.29;-0.258347;43.239118;logement;;;ANGAIS;RUE LAS CLABADES;commune;commune;1;64023000ZA0108
64023_0xv551_00008;;8;;Rue Las Clabades;64510;64023;Angaïs;;;435307.67;6243227.52;-0.257587;43.239098;logement;;;ANGAIS;RUE LAS CLABADES;commune;commune;1;64023000ZA0112
64023_0xv551_00009;;9;;Rue Las Clabades;64510;64023;Angaïs;;;435229.76;6243269.35;-0.258566;43.239445;logement;;;ANGAIS;RUE LAS CLABADES;commune;commune;1;64023000ZA0109
64023_0xv551_00012;;12;;Rue Las Clabades;64510;64023;Angaïs;;;435254.74;6243285.34;-0.258267;43.239598;logement;;;ANGAIS;RUE LAS CLABADES;commune;commune;1;64023000ZA0110
64023_fle6og_00001;;1;;Rue du Néouvielle;64510;64023;Angaïs;;;436104.15;6242684.44;-0.247521;43.234512;logement;;;ANGAIS;RUE DU NEOUVIELLE;commune;commune;1;640230000B2046
64023_fle6og_00002;;2;;Rue du Néouvielle;64510;64023;Angaïs;;;436090.56;6242700.02;-0.247696;43.234647;logement;;;ANGAIS;RUE DU NEOUVIELLE;commune;commune;1;640230000B2042
64023_fle6og_00003;;3;;Rue du Néouvielle;64510;64023;Angaïs;;;436070.8;6242656.88;-0.247917;43.234252;logement;;;ANGAIS;RUE DU NEOUVIELLE;commune;commune;1;640230000B2045
64023_fle6og_00004;;4;;Rue du Néouvielle;64510;64023;Angaïs;;;436054.43;6242682.14;-0.248131;43.234473;logement;;;ANGAIS;RUE DU NEOUVIELLE;commune;commune;1;640230000B2043
64023_0115_00002;64023_0115;2;;Rue Les Colibris;64510;64023;Angaïs;;;435789.16;6242447.62;-0.251273;43.232267;logement;;;ANGAIS;RUE LES COLIBRIS;commune;commune;1;640230000B2026|640230000B2023
64023_0115_00003;64023_0115;3;;Rue Les Colibris;64510;64023;Angaïs;;;435806.71;6242514.21;-0.251091;43.232872;logement;;;ANGAIS;RUE LES COLIBRIS;commune;commune;1;640230000B2029
64023_0115_00004;64023_0115;4;;Rue Les Colibris;64510;64023;Angaïs;;;435815.75;6242469;-0.250957;43.232469;logement;;;ANGAIS;RUE LES COLIBRIS;commune;commune;1;640230000B2025
64023_0115_00006;64023_0115;6;;Rue Les Colibris;64510;64023;Angaïs;;;435839.98;6242482.46;-0.250666;43.232599;logement;;;ANGAIS;RUE LES COLIBRIS;commune;commune;1;640230000B2024
64023_0115_00008;64023_0115;8;;Rue Les Colibris;64510;64023;Angaïs;;;435859.5;6242494.23;-0.250432;43.232712;logement;;;ANGAIS;RUE LES COLIBRIS;commune;commune;1;640230000B2023
64023_0115_00010;64023_0115;10;;Rue Les Colibris;64510;64023;Angaïs;;;435883.47;6242513.16;-0.250147;43.232891;logement;;;ANGAIS;RUE LES COLIBRIS;commune;commune;1;640230000B2022
64023_0060_00001;64023_0060;1;;Rue du Pic du Midi;64510;64023;Angaïs;;;435980.11;6242886.37;-0.249148;43.236281;logement;;;ANGAIS;RUE DU PIC DU MIDI;commune;commune;1;640230000B0618
64023_0060_00002;64023_0060;2;;Rue du Pic du Midi;64510;64023;Angaïs;;;435948.02;6242903.38;-0.249551;43.236422;logement;;;ANGAIS;RUE DU PIC DU MIDI;commune;commune;1;640230000B0639
64023_0060_00003;64023_0060;3;;Rue du Pic du Midi;64510;64023;Angaïs;;;436004.99;6242864.32;-0.248831;43.236092;logement;;;ANGAIS;RUE DU PIC DU MIDI;commune;commune;1;640230000B0619|640230000B1803|640230000B1797|640230000B1385|640230000B1794|640230000B1802
64023_0060_00004;64023_0060;4;;Rue du Pic du Midi;64510;64023;Angaïs;;;435948.16;6242829.72;-0.249512;43.23576;logement;;;ANGAIS;RUE DU PIC DU MIDI;commune;commune;1;640230000B1658
64023_0060_00005;64023_0060;5;;Rue du Pic du Midi;64510;64023;Angaïs;;;436042.5;6242825.16;-0.24835;43.235754;logement;;;ANGAIS;RUE DU PIC DU MIDI;commune;commune;1;640230000B0621|640230000B0622|640230000B1604
64023_0060_00007;64023_0060;7;;Rue du Pic du Midi;64510;64023;Angaïs;;;436054.92;6242806.74;-0.248188;43.235593;logement;;;ANGAIS;RUE DU PIC DU MIDI;commune;commune;1;640230000B0624|640230000B0623
64023_0060_00008;64023_0060;8;;Rue du Pic du Midi;64510;64023;Angaïs;;;436042.45;6242768.42;-0.248322;43.235244;logement;;;ANGAIS;RUE DU PIC DU MIDI;commune;commune;1;640230000B1146
64023_0060_00009;64023_0060;9;;Rue du Pic du Midi;64510;64023;Angaïs;;;436063.85;6242796.25;-0.248073;43.235502;logement;;;ANGAIS;RUE DU PIC DU MIDI;commune;commune;1;640230000B0625|640230000B0626
64023_0060_00010;64023_0060;10;;Rue du Pic du Midi;64510;64023;Angaïs;;;436015.97;6242749.82;-0.248638;43.235067;logement;;;ANGAIS;RUE DU PIC DU MIDI;commune;commune;1;640230000B1148
64023_0060_00011;64023_0060;11;;Rue du Pic du Midi;64510;64023;Angaïs;;;436069.48;6242784.89;-0.247998;43.235402;logement;;;ANGAIS;RUE DU PIC DU MIDI;commune;commune;1;640230000B2059|640230000B0628|640230000B0627|640230000B1115
64023_0060_00012;64023_0060;12;;Rue du Pic du Midi;64510;64023;Angaïs;;;435999.21;6242730.03;-0.248834;43.234883;logement;;;ANGAIS;RUE DU PIC DU MIDI;commune;commune;1;640230000B1149
64023_0060_00013;64023_0060;13;;Rue du Pic du Midi;64510;64023;Angaïs;;;436109.02;6242812.64;-0.247526;43.235666;logement;;;ANGAIS;RUE DU PIC DU MIDI;commune;commune;1;640230000B1540|640230000B1538|640230000B1537
64023_0060_00014;64023_0060;14;;Rue du Pic du Midi;64510;64023;Angaïs;;;436064.06;6242722.36;-0.248033;43.234838;logement;;;ANGAIS;RUE DU PIC DU MIDI;commune;commune;1;640230000B1672
64023_0060_00015;64023_0060;15;;Rue du Pic du Midi;64510;64023;Angaïs;;;436097.71;6242770.93;-0.247644;43.235287;logement;;;ANGAIS;RUE DU PIC DU MIDI;commune;commune;1;640230000B1725|640230000B1727
64023_0060_00016;64023_0060;16;;Rue du Pic du Midi;64510;64023;Angaïs;;;436022.55;6242707.93;-0.248536;43.234693;logement;;;ANGAIS;RUE DU PIC DU MIDI;commune;commune;1;640230000B1673
64023_0060_00017;64023_0060;17;;Rue du Pic du Midi;64510;64023;Angaïs;;;436127.5;6242721.86;-0.247253;43.234857;logement;;;ANGAIS;RUE DU PIC DU MIDI;commune;commune;1;64023000ZC0077|640230000B1633|640230000B1631
64023_0060_00019;64023_0060;19;;Rue du Pic du Midi;64510;64023;Angaïs;;;436145.18;6242708.67;-0.247029;43.234745;logement;;;ANGAIS;RUE DU PIC DU MIDI;commune;commune;1;64023000ZC0084
64023_0060_00021;64023_0060;21;;Rue du Pic du Midi;64510;64023;Angaïs;;;436448.25;6242402.81;-0.243149;43.232108;logement;;;ANGAIS;RUE DU PIC DU MIDI;commune;commune;1;64023000ZC0079
64023_0060_00025;64023_0060;25;;Rue du Pic du Midi;64510;64023;Angaïs;;;436643.96;6242178.13;-0.24063;43.230161;logement;;;ANGAIS;RUE DU PIC DU MIDI;commune;commune;1;64023000ZC0048
64023_0060_00026;64023_0060;26;;Rue du Pic du Midi;64510;64023;Angaïs;;;436349.41;6242422.67;-0.244374;43.23225;logement;;;ANGAIS;RUE DU PIC DU MIDI;commune;commune;1;64023000ZB0052
64023_0060_00027;64023_0060;27;;Rue du Pic du Midi;64510;64023;Angaïs;;;436709.24;6242224.41;-0.239851;43.230601;logement;;;ANGAIS;RUE DU PIC DU MIDI;commune;commune;1;64023000ZC0049|64023000ZC0050
64023_0060_00029;64023_0060;29;;Rue du Pic du Midi;64510;64023;Angaïs;;;436642.17;6242154.4;-0.24064;43.229947;logement;;;ANGAIS;RUE DU PIC DU MIDI;commune;commune;1;64023000ZC0047
64023_0060_00032;64023_0060;32;;Rue du Pic du Midi;64510;64023;Angaïs;;;436498.18;6242243.76;-0.242455;43.230697;logement;;;ANGAIS;RUE DU PIC DU MIDI;commune;commune;1;64023000ZB0056
64023_0060_00033;64023_0060;33;;Rue du Pic du Midi;64510;64023;Angaïs;;;436788.02;6242161.65;-0.238851;43.230066;logement;;;ANGAIS;RUE DU PIC DU MIDI;commune;commune;1;64023000ZC0094|64023000ZC0081|64023000ZC0096
64023_0060_00036;64023_0060;36;;Rue du Pic du Midi;64510;64023;Angaïs;;;436623.43;6242096.31;-0.240841;43.229418;logement;;;ANGAIS;RUE DU PIC DU MIDI;commune;commune;1;640230000B1112
64023_0060_00042;64023_0060;42;;Rue du Pic du Midi;64510;64023;Angaïs;;;436676.73;6242036.93;-0.240156;43.228904;logement;;;ANGAIS;RUE DU PIC DU MIDI;commune;commune;1;640230000B1302
64023_0060_00044;64023_0060;44;;Rue du Pic du Midi;64510;64023;Angaïs;;;436637.02;6242014.97;-0.240633;43.228692;logement;;;ANGAIS;RUE DU PIC DU MIDI;commune;commune;1;640230000B1301
64023_0060_00046;64023_0060;46;;Rue du Pic du Midi;64510;64023;Angaïs;;;436691.22;6241993.5;-0.239956;43.228519;logement;;;ANGAIS;RUE DU PIC DU MIDI;commune;commune;1;640230000B1761
64023_0060_00015_ter;64023_0060;15;ter;Rue du Pic du Midi;64510;64023;Angaïs;;;436151.29;6242750.48;-0.246975;43.235123;logement;;;ANGAIS;RUE DU PIC DU MIDI;commune;commune;1;64023000ZC0107|640230000B1988|640230000B1980|640230000B1986
64023_0060_00019_bis;64023_0060;19;bis;Rue du Pic du Midi;64510;64023;Angaïs;;;436167.73;6242689.39;-0.246742;43.23458;logement;;;ANGAIS;RUE DU PIC DU MIDI;commune;commune;1;64023000ZC0085
64023_0060_00002_bis;64023_0060;2;bis;Rue du Pic du Midi;64510;64023;Angaïs;;;435961.75;6242863.43;-0.249362;43.236068;logement;;;ANGAIS;RUE DU PIC DU MIDI;commune;commune;1;640230000B2005|640230000B2004
64023_0060_00003_bis;64023_0060;3;bis;Rue du Pic du Midi;64510;64023;Angaïs;;;436061.35;6242899.71;-0.248156;43.236431;logement;;;ANGAIS;RUE DU PIC DU MIDI;commune;commune;1;640230000B1798
64023_0060_00003_ter;64023_0060;3;ter;Rue du Pic du Midi;64510;64023;Angaïs;;;436081.19;6242887.44;-0.247906;43.236328;logement;;;ANGAIS;RUE DU PIC DU MIDI;commune;commune;1;640230000B1799
64023_0060_00019_quater;64023_0060;19;quater;Rue du Pic du Midi;64510;64023;Angaïs;;;436217.98;6242667.07;-0.246113;43.234398;logement;;;ANGAIS;RUE DU PIC DU MIDI;commune;commune;1;64023000ZC0101
64023_0060_00033_bis;64023_0060;33;bis;Rue du Pic du Midi;64510;64023;Angaïs;;;436829.88;6242178.63;-0.238345;43.230234;logement;;;ANGAIS;RUE DU PIC DU MIDI;commune;commune;1;64023000ZC0088|64023000ZC0095|64023000ZC0091|64023000ZC0090|64023000ZC0092
64023_0060_00015_bis;64023_0060;15;bis;Rue du Pic du Midi;64510;64023;Angaïs;;;436124.84;6242777.83;-0.247314;43.235359;logement;;;ANGAIS;RUE DU PIC DU MIDI;commune;commune;1;640230000B1979|640230000B1984
64023_0060_00019_ter;64023_0060;19;ter;Rue du Pic du Midi;64510;64023;Angaïs;;;436204.61;6242686.2;-0.246287;43.234565;logement;;;ANGAIS;RUE DU PIC DU MIDI;commune;commune;1;64023000ZC0103
64023_0009_00001;64023_0009;1;;Impasse Cournales;64510;64023;Angaïs;;;435166.64;6243202.41;-0.259308;43.23882;logement;;;ANGAIS;IMPASSE COURNALES;commune;commune;1;64023000ZA0105|64023000ZA0107
64023_0009_00003;64023_0009;3;;Impasse Cournales;64510;64023;Angaïs;;;435192.08;6243231.52;-0.25901;43.239091;logement;;;ANGAIS;IMPASSE COURNALES;commune;commune;1;64023000ZA0106
64023_0009_00005;64023_0009;5;;Impasse Cournales;64510;64023;Angaïs;;;435190.08;6243198.89;-0.259018;43.238797;logement;;;ANGAIS;IMPASSE COURNALES;commune;commune;1;64023000ZA0107|64023000ZA0106
64023_0065_00001;64023_0065;1;;Rue des Pins;64510;64023;Angaïs;;;435568.07;6243219.78;-0.254382;43.239125;logement;;;ANGAIS;RUE DES PINS;commune;commune;1;640230000B0780
64023_0065_00002;64023_0065;2;;Rue des Pins;64510;64023;Angaïs;;;435583.97;6243216.9;-0.254185;43.239105;logement;;;ANGAIS;RUE DES PINS;commune;commune;1;640230000B0554|640230000B0555|640230000B0556|640230000B0553
64023_0065_00003;64023_0065;3;;Rue des Pins;64510;64023;Angaïs;;;435563.05;6243238.13;-0.254453;43.239288;logement;;;ANGAIS;RUE DES PINS;commune;commune;1;640230000B0782|640230000B0781
64023_0065_00004;64023_0065;4;;Rue des Pins;64510;64023;Angaïs;;;435585.29;6243244.89;-0.254183;43.239357;logement;;;ANGAIS;RUE DES PINS;commune;commune;1;640230000B0550|640230000B0551|640230000B0552
64023_0065_00005;64023_0065;5;;Rue des Pins;64510;64023;Angaïs;;;435562.86;6243255.27;-0.254464;43.239442;logement;;;ANGAIS;RUE DES PINS;commune;commune;1;640230000B1008|640230000B1009|640230000B0789
64023_0065_00006;64023_0065;6;;Rue des Pins;64510;64023;Angaïs;;;435581.69;6243279.97;-0.254245;43.239671;logement;;;ANGAIS;RUE DES PINS;commune;commune;1;640230000B0549|640230000B0548|640230000B0547
64023_0065_00007;64023_0065;7;;Rue des Pins;64510;64023;Angaïs;;;435556.9;6243280.44;-0.25455;43.239666;logement;;;ANGAIS;RUE DES PINS;commune;commune;1;640230000B0790
64023_0065_00008;64023_0065;8;;Rue des Pins;64510;64023;Angaïs;;;435575.05;6243353.57;-0.254364;43.24033;logement;;;ANGAIS;RUE DES PINS;commune;commune;1;640230000B0536|640230000B0539
64023_0065_00009;64023_0065;9;;Rue des Pins;64510;64023;Angaïs;;;435551.94;6243304.12;-0.254623;43.239877;logement;;;ANGAIS;RUE DES PINS;commune;commune;1;640230000B0791|640230000B0792
64023_0065_00010;64023_0065;10;;Rue des Pins;64510;64023;Angaïs;;;435568.1;6243372.55;-0.254459;43.240498;logement;;;ANGAIS;RUE DES PINS;commune;commune;1;640230000B1170|640230000B1169|640230000B0534
64023_0065_00011;64023_0065;11;;Rue des Pins;64510;64023;Angaïs;;;435538.08;6243358.54;-0.254821;43.240361;logement;;;ANGAIS;RUE DES PINS;commune;commune;1;640230000B0798|640230000B0799|640230000B1216|640230000B1218|640230000B0797
64023_0065_00012;64023_0065;12;;Rue des Pins;64510;64023;Angaïs;;;435559.39;6243391.93;-0.254576;43.240669;logement;;;ANGAIS;RUE DES PINS;commune;commune;1;640230000B0533
64023_0065_00013;64023_0065;13;;Rue des Pins;64510;64023;Angaïs;;;435536.79;6243406.11;-0.254861;43.240788;logement;;;ANGAIS;RUE DES PINS;commune;commune;1;640230000B1849|640230000B0804|640230000B0805|640230000B0810|640230000B0803|640230000B0802|640230000B1220
64023_0065_00015;64023_0065;15;;Rue des Pins;64510;64023;Angaïs;;;435556.15;6243433.79;-0.254637;43.241044;logement;;;ANGAIS;RUE DES PINS;commune;commune;1;640230000B0807|640230000B0808|640230000B0539|640230000B0809
64023_0065_00017;64023_0065;17;;Rue des Pins;64510;64023;Angaïs;;;435563.72;6243502.91;-0.254579;43.241668;logement;;;ANGAIS;RUE DES PINS;commune;commune;1;640230000B0337|640230000B0335|640230000B0336|640230000B0339|640230000B0338|640230000B0340|640230000B0334
64023_0065_00018;64023_0065;18;;Rue des Pins;64510;64023;Angaïs;;;435562.98;6243670.5;-0.254673;43.243174;logement;;;ANGAIS;RUE DES PINS;commune;commune;1;640230000A0108|640230000A0110
64023_0025_00001;64023_0025;1;;Rue Henri IV;64510;64023;Angaïs;;;435573.13;6243139.35;-0.254279;43.238404;logement;;;ANGAIS;RUE HENRI IV;commune;commune;1;640230000B1163|640230000B0839
64023_0025_00002;64023_0025;2;;Rue Henri IV;64510;64023;Angaïs;;;435601.4;6243150.31;-0.253937;43.238513;logement;;;ANGAIS;RUE HENRI IV;commune;commune;1;640230000B0563|640230000B0566|640230000B0567
64023_0025_00003;64023_0025;3;;Rue Henri IV;64510;64023;Angaïs;;;435558.97;6243170.76;-0.254469;43.238681;logement;;;ANGAIS;RUE HENRI IV;commune;commune;1;640230000B0836
64023_0025_00004;64023_0025;4;;Rue Henri IV;64510;64023;Angaïs;;;435585.53;6243173.67;-0.254144;43.238717;logement;;;ANGAIS;RUE HENRI IV;commune;commune;1;640230000B1569|640230000B1544|640230000B0561|640230000B0560|640230000B1542
64023_0025_00005;64023_0025;5;;Rue Henri IV;64510;64023;Angaïs;;;435542.49;6243183.34;-0.254678;43.238788;logement;;;ANGAIS;RUE HENRI IV;commune;commune;1;640230000B0835|640230000B0834
64023_0025_00006;64023_0025;6;;Rue Henri IV;64510;64023;Angaïs;;;435552.82;6243205.06;-0.254562;43.238987;logement;;;ANGAIS;RUE HENRI IV;commune;commune;1;640230000B1445|640230000B0784|640230000B0783
64023_0025_00008;64023_0025;8;;Rue Henri IV;64510;64023;Angaïs;;;435529.4;6243242.85;-0.254869;43.239318;logement;;;ANGAIS;RUE HENRI IV;commune;commune;1;640230000B0787|640230000B0785
64023_0025_00009;64023_0025;9;;Rue Henri IV;64510;64023;Angaïs;;;435504.38;6243217.96;-0.255164;43.239085;logement;;;ANGAIS;RUE HENRI IV;commune;commune;1;640230000B1911|640230000B1912|640230000B0829
64023_0025_00010;64023_0025;10;;Rue Henri IV;64510;64023;Angaïs;;;435517.14;6243263.05;-0.25503;43.239495;logement;;;ANGAIS;RUE HENRI IV;commune;commune;1;640230000B1214|640230000B0794|640230000B0793
64023_0025_00011;64023_0025;11;;Rue Henri IV;64510;64023;Angaïs;;;435485.79;6243244.43;-0.255406;43.239316;logement;;;ANGAIS;RUE HENRI IV;commune;commune;1;640230000B0823|640230000B0821|640230000B0822|640230000B0824
64023_0025_00015;64023_0025;15;;Rue Henri IV;64510;64023;Angaïs;;;435460.38;6243279.19;-0.255736;43.239619;logement;;;ANGAIS;RUE HENRI IV;commune;commune;1;640230000B1002|640230000B0813|640230000B0811|640230000B0812
64023_0025_00017;64023_0025;17;;Rue Henri IV;64510;64023;Angaïs;;;435433.98;6243319.56;-0.256081;43.239972;logement;;;ANGAIS;RUE HENRI IV;commune;commune;1;640230000B1897
64023_0025_00018;64023_0025;18;;Rue Henri IV;64510;64023;Angaïs;;;435459.47;6243369.68;-0.255793;43.240432;logement;;;ANGAIS;RUE HENRI IV;commune;commune;1;
64023_0025_00019;64023_0025;19;;Rue Henri IV;64510;64023;Angaïs;;;435380.92;6243307.17;-0.256727;43.239841;logement;;;ANGAIS;RUE HENRI IV;commune;commune;1;640230000B1355
64023_0025_00020;64023_0025;20;;Rue Henri IV;64510;64023;Angaïs;;;435396.5;6243387.08;-0.256576;43.240565;logement;;;ANGAIS;RUE HENRI IV;commune;commune;1;640230000B1191
64023_0025_00021;64023_0025;21;;Rue Henri IV;64510;64023;Angaïs;;;435373.26;6243326.51;-0.256831;43.240012;logement;;;ANGAIS;RUE HENRI IV;commune;commune;1;640230000B1749
64023_0025_00022;64023_0025;22;;Rue Henri IV;64510;64023;Angaïs;;;435379.86;6243460.87;-0.256818;43.241222;logement;;;ANGAIS;RUE HENRI IV;commune;commune;1;640230000B1443
64023_0025_00024;64023_0025;24;;Rue Henri IV;64510;64023;Angaïs;;;435340.73;6243409.52;-0.257273;43.240746;logement;;;ANGAIS;RUE HENRI IV;commune;commune;1;640230000B1442|640230000B1700|640230000B1699|640230000B2072
64023_0025_00025;64023_0025;25;;Rue Henri IV;64510;64023;Angaïs;;;435340.86;6243353.66;-0.257243;43.240244;logement;;;ANGAIS;RUE HENRI IV;commune;commune;1;640230000B1748
64023_0025_00026;64023_0025;26;;Rue Henri IV;64510;64023;Angaïs;;;435369.97;6243398.75;-0.256908;43.24066;logement;;;ANGAIS;RUE HENRI IV;commune;commune;1;640230000B1623
64023_0025_00028;64023_0025;28;;Rue Henri IV;64510;64023;Angaïs;;;435393.99;6243432.8;-0.25663;43.240975;logement;;;ANGAIS;RUE HENRI IV;commune;commune;1;640230000B1624
64023_0025_00030;64023_0025;30;;Rue Henri IV;64510;64023;Angaïs;;;435314.11;6243442.66;-0.257617;43.241034;logement;;;ANGAIS;RUE HENRI IV;commune;commune;1;640230000B1697|640230000B2074
64023_0025_00036;64023_0025;36;;Rue Henri IV;64510;64023;Angaïs;;;435171.86;6243525.87;-0.259408;43.241729;logement;;;ANGAIS;RUE HENRI IV;commune;commune;1;640230000B1750|640230000B1751|640230000B0358
64023_0025_00038;64023_0025;38;;Rue Henri IV;64510;64023;Angaïs;;;435059.22;6243614.75;-0.260838;43.242486;logement;;;ANGAIS;RUE HENRI IV;commune;commune;1;640230000B1350
64023_0025_00040;64023_0025;40;;Rue Henri IV;64510;64023;Angaïs;;;435015.26;6243633.7;-0.261388;43.24264;logement;;;ANGAIS;RUE HENRI IV;commune;commune;1;640230000B1346
64023_0025_00042;64023_0025;42;;Rue Henri IV;64510;64023;Angaïs;;;434870.46;6243348.17;-0.263023;43.24002;logement;;;ANGAIS;RUE HENRI IV;commune;commune;1;64023000ZA0098|64023000ZA0097|64023000ZA0090|64023000ZA0091|64023000ZA0092|64023000ZA0094|64023000ZA0093|64023000ZA0070
64023_0025_00036_bis;64023_0025;36;bis;Rue Henri IV;64510;64023;Angaïs;;;435093.46;6243598.98;-0.260409;43.242357;logement;;;ANGAIS;RUE HENRI IV;commune;commune;1;640230000B1660
64023_0045_00002;64023_0045;2;;Rue des Marronniers;64510;64023;Angaïs;;;435519.88;6243126.31;-0.254927;43.238267;logement;;;ANGAIS;RUE DES MARRONNIERS;commune;commune;1;640230000B0842
64023_0045_00003;64023_0045;3;;Rue des Marronniers;64510;64023;Angaïs;;;435449.08;6243068.48;-0.255768;43.237721;logement;;;ANGAIS;RUE DES MARRONNIERS;commune;commune;1;64023000ZA0138
64023_0045_00004;64023_0045;4;;Rue des Marronniers;64510;64023;Angaïs;;;435491.2;6243127.15;-0.25528;43.238264;logement;;;ANGAIS;RUE DES MARRONNIERS;commune;commune;1;640230000B0844|640230000B0843
64023_0045_00006;64023_0045;6;;Rue des Marronniers;64510;64023;Angaïs;;;435472.1;6243117.82;-0.25551;43.238173;logement;;;ANGAIS;RUE DES MARRONNIERS;commune;commune;1;640230000B0845|640230000B0846
64023_0045_00008;64023_0045;8;;Rue des Marronniers;64510;64023;Angaïs;;;435444.59;6243105.49;-0.255842;43.238052;logement;;;ANGAIS;RUE DES MARRONNIERS;commune;commune;1;640230000B0851|640230000B0850
64023_0045_00010;64023_0045;10;;Rue des Marronniers;64510;64023;Angaïs;;;435423.94;6243125.48;-0.256106;43.238224;logement;;;ANGAIS;RUE DES MARRONNIERS;commune;commune;1;640230000B0848|640230000B2002
64023_0045_00012;64023_0045;12;;Rue des Marronniers;64510;64023;Angaïs;;;435380.28;6243151.65;-0.256656;43.238443;logement;;;ANGAIS;RUE DES MARRONNIERS;commune;commune;1;640230000B1130
64023_0045_00013;64023_0045;13;;Rue des Marronniers;64510;64023;Angaïs;;;435336.08;6243123.43;-0.257185;43.238173;logement;;;ANGAIS;RUE DES MARRONNIERS;commune;commune;1;640230000B1203
64023_0045_00014;64023_0045;14;;Rue des Marronniers;64510;64023;Angaïs;;;435357.36;6243158.16;-0.256941;43.238493;logement;;;ANGAIS;RUE DES MARRONNIERS;commune;commune;1;640230000B1131|640230000B1132
64023_0045_00015;64023_0045;15;;Rue des Marronniers;64510;64023;Angaïs;;;435287.47;6243134.23;-0.257788;43.238252;logement;;;ANGAIS;RUE DES MARRONNIERS;commune;commune;1;640230000B1641
64023_0045_00016;64023_0045;16;;Rue des Marronniers;64510;64023;Angaïs;;;435207.97;6243171;-0.258784;43.238553;logement;;;ANGAIS;RUE DES MARRONNIERS;commune;commune;1;64023000ZA0099
64023_0045_00017;64023_0045;17;;Rue des Marronniers;64510;64023;Angaïs;;;435240.68;6243135.71;-0.258364;43.238248;logement;;;ANGAIS;RUE DES MARRONNIERS;commune;commune;1;640230000B1680
64023_0045_00020;64023_0045;20;;Rue des Marronniers;64510;64023;Angaïs;;;435146.72;6243204.68;-0.259554;43.238833;logement;;;ANGAIS;RUE DES MARRONNIERS;commune;commune;1;640230000B2066
64023_0045_00022;64023_0045;22;;Rue des Marronniers;64510;64023;Angaïs;;;435105.34;6243175.68;-0.260048;43.238557;logement;;;ANGAIS;RUE DES MARRONNIERS;commune;commune;1;640230000B1601
64023_0045_00024;64023_0045;24;;Rue des Marronniers;64510;64023;Angaïs;;;435061.38;6243161.14;-0.260581;43.23841;logement;;;ANGAIS;RUE DES MARRONNIERS;commune;commune;1;640230000B1599
64023_0045_00026;64023_0045;26;;Rue des Marronniers;64510;64023;Angaïs;;;435042.04;6243169.51;-0.260823;43.238478;logement;;;ANGAIS;RUE DES MARRONNIERS;commune;commune;1;640230000B1713
64023_0045_00027;64023_0045;27;;Rue des Marronniers;64510;64023;Angaïs;;;435025.94;6243126.34;-0.260999;43.238084;logement;;;ANGAIS;RUE DES MARRONNIERS;commune;commune;1;640230000B1326
64023_0045_00029;64023_0045;29;;Rue des Marronniers;64510;64023;Angaïs;;;434978.87;6243125.05;-0.261577;43.238055;logement;;;ANGAIS;RUE DES MARRONNIERS;commune;commune;1;640230000B1327
64023_0045_00030;64023_0045;30;;Rue des Marronniers;64510;64023;Angaïs;;;435007.96;6243165.69;-0.26124;43.238431;logement;;;ANGAIS;RUE DES MARRONNIERS;commune;commune;1;640230000B1357
64023_0045_00031;64023_0045;31;;Rue des Marronniers;64510;64023;Angaïs;;;434899.71;6243118.98;-0.262547;43.237971;logement;;;ANGAIS;RUE DES MARRONNIERS;commune;commune;1;640230000B1340|640230000B1341
64023_0045_00032;64023_0045;32;;Rue des Marronniers;64510;64023;Angaïs;;;434971.4;6243145.28;-0.261679;43.238234;logement;;;ANGAIS;RUE DES MARRONNIERS;commune;commune;1;640230000B1356
64023_0045_00036;64023_0045;36;;Rue des Marronniers;64510;64023;Angaïs;;;434906.39;6243146.74;-0.262479;43.238223;logement;;;ANGAIS;RUE DES MARRONNIERS;commune;commune;1;640230000B1946
64023_0045_00037;64023_0045;37;;Rue des Marronniers;64510;64023;Angaïs;;;434802.37;6243080.5;-0.263724;43.237589;logement;;;ANGAIS;RUE DES MARRONNIERS;commune;commune;1;64023000ZA0018
64023_0045_00038;64023_0045;38;;Rue des Marronniers;64510;64023;Angaïs;;;434899;6243131.47;-0.262562;43.238083;logement;;;ANGAIS;RUE DES MARRONNIERS;commune;commune;1;640230000B1721
64023_0045_00039;64023_0045;39;;Rue des Marronniers;64510;64023;Angaïs;;;434765.8;6243075.45;-0.264171;43.23753;logement;;;ANGAIS;RUE DES MARRONNIERS;commune;commune;1;64023000ZA0016
64023_0045_00040;64023_0045;40;;Rue des Marronniers;64510;64023;Angaïs;;;434837.17;6243133.25;-0.263323;43.238076;logement;;;ANGAIS;RUE DES MARRONNIERS;commune;commune;1;64023000ZA0160
64023_0045_00041;64023_0045;41;;Rue des Marronniers;64510;64023;Angaïs;;;434778.17;6243034.33;-0.263998;43.237165;logement;;;ANGAIS;RUE DES MARRONNIERS;commune;commune;1;64023000ZA0017
64023_0045_00008_bis;64023_0045;8;bis;Rue des Marronniers;64510;64023;Angaïs;;;435452.46;6243154.45;-0.25577;43.238495;logement;;;ANGAIS;RUE DES MARRONNIERS;commune;commune;1;640230000B0847|640230000B2001
64023_0045_00038_bis;64023_0045;38;bis;Rue des Marronniers;64510;64023;Angaïs;;;434842.53;6243180.31;-0.263281;43.238501;logement;;;ANGAIS;RUE DES MARRONNIERS;commune;commune;1;640230000B1722
64023_0045_00010_bis;64023_0045;10;bis;Rue des Marronniers;64510;64023;Angaïs;;;435411.19;6243147.7;-0.256274;43.238419;logement;;;ANGAIS;RUE DES MARRONNIERS;commune;commune;1;640230000B1129
64023_0073_00001;64023_0073;1;;Chemin du Pont de Boeil;64510;64023;Angaïs;;;436805.92;6242098.27;-0.238599;43.229503;logement;;;ANGAIS;CHEMIN DU PONT DE BOEIL;commune;commune;1;64023000ZC0060|64023000ZC0065
64023_0073_00002;64023_0073;2;;Chemin du Pont de Boeil;64510;64023;Angaïs;;;436881.97;6242115.52;-0.237673;43.229686;logement;;;ANGAIS;CHEMIN DU PONT DE BOEIL;commune;commune;1;64023000ZC0060|64023000ZC0066|64023000ZC0061
64023_0070_00001;64023_0070;1;;Rue de la Plaine;64510;64023;Angaïs;;;435770.33;6242590.81;-0.251577;43.233547;logement;;;ANGAIS;RUE DE LA PLAINE;commune;commune;1;640230000B1861
64023_0070_00002;64023_0070;2;;Rue de la Plaine;64510;64023;Angaïs;;;435823.11;6242558.82;-0.250912;43.233279;logement;;;ANGAIS;RUE DE LA PLAINE;commune;commune;1;640230000B1372
64023_0070_00003;64023_0070;3;;Rue de la Plaine;64510;64023;Angaïs;;;435853.91;6242595.49;-0.250552;43.23362;logement;;;ANGAIS;RUE DE LA PLAINE;commune;commune;1;640230000B1864
64023_0070_00004;64023_0070;4;;Rue de la Plaine;64510;64023;Angaïs;;;435864.42;6242538.54;-0.250394;43.233112;logement;;;ANGAIS;RUE DE LA PLAINE;commune;commune;1;640230000B2007
64023_0070_00005;64023_0070;5;;Rue de la Plaine;64510;64023;Angaïs;;;435914.13;6242566.31;-0.249797;43.23338;logement;;;ANGAIS;RUE DE LA PLAINE;commune;commune;1;640230000B1052
64023_0070_00006;64023_0070;6;;Rue de la Plaine;64510;64023;Angaïs;;;435874.03;6242477.61;-0.250245;43.232568;logement;;;ANGAIS;RUE DE LA PLAINE;commune;commune;1;640230000B2083|640230000B2082
64023_0070_00008;64023_0070;8;;Rue de la Plaine;64510;64023;Angaïs;;;435936.08;6242508.66;-0.249498;43.23287;logement;;;ANGAIS;RUE DE LA PLAINE;commune;commune;1;640230000B0239|640230000B0238|640230000B1405
64023_0070_00010;64023_0070;10;;Rue de la Plaine;64510;64023;Angaïs;;;435979.24;6242475.95;-0.248951;43.232592;logement;;;ANGAIS;RUE DE LA PLAINE;commune;commune;1;640230000B0235|640230000B0236
64023_0070_00012;64023_0070;12;;Rue de la Plaine;64510;64023;Angaïs;;;435998;6242457.49;-0.248711;43.232433;logement;;;ANGAIS;RUE DE LA PLAINE;commune;commune;1;640230000B1824|640230000B1934|640230000B1930|640230000B1936|640230000B1938
64023_0070_00014;64023_0070;14;;Rue de la Plaine;64510;64023;Angaïs;;;436046.87;6242500.43;-0.248132;43.232837;logement;;;ANGAIS;RUE DE LA PLAINE;commune;commune;1;640230000B1190
64023_0070_00016;64023_0070;16;;Rue de la Plaine;64510;64023;Angaïs;;;436069.22;6242505.74;-0.24786;43.232893;logement;;;ANGAIS;RUE DE LA PLAINE;commune;commune;1;640230000B2051|640230000B2052|640230000B2054
64023_0070_00001_ter;64023_0070;1;ter;Rue de la Plaine;64510;64023;Angaïs;;;435826.39;6242602.86;-0.250894;43.233676;logement;;;ANGAIS;RUE DE LA PLAINE;commune;commune;1;640230000B1863
64023_0070_00003_bis;64023_0070;3;bis;Rue de la Plaine;64510;64023;Angaïs;;;435884.09;6242577.56;-0.250172;43.23347;logement;;;ANGAIS;RUE DE LA PLAINE;commune;commune;1;640230000B1865
64023_0070_00001_bis;64023_0070;1;bis;Rue de la Plaine;64510;64023;Angaïs;;;435798.48;6242598.66;-0.251235;43.233628;logement;;;ANGAIS;RUE DE LA PLAINE;commune;commune;1;640230000B1862
64023_0070_00004_bis;64023_0070;4;bis;Rue de la Plaine;64510;64023;Angaïs;;;435908.63;6242523.7;-0.249843;43.232995;logement;;;ANGAIS;RUE DE LA PLAINE;commune;commune;1;640230000B2008
64023_0070_00008_bis;64023_0070;8;bis;Rue de la Plaine;64510;64023;Angaïs;;;435957.51;6242479.74;-0.24922;43.232618;logement;;;ANGAIS;RUE DE LA PLAINE;commune;commune;1;640230000B1404
64023_0005_00004;64023_0005;4;;Rue du Bois;64510;64023;Angaïs;;;436271.54;6243089.01;-0.245668;43.23821;logement;;;ANGAIS;RUE DU BOIS;commune;commune;1;640230000B0012|640230000B0013|640230000B0014
64023_0005_00013;64023_0005;13;;Rue du Bois;64510;64023;Angaïs;;;436425.88;6243469.64;-0.243963;43.241688;logement;;;ANGAIS;RUE DU BOIS;commune;commune;1;640230000A0218|640230000A0216
64023_0003_00001;64023_0003;1;;Rue de Balaitous;64510;64023;Angaïs;;;435194.39;6243147.53;-0.258939;43.238337;logement;;;ANGAIS;RUE DE BALAITOUS;commune;commune;1;640230000B1457|640230000B1456
64023_0003_00002;64023_0003;2;;Rue de Balaitous;64510;64023;Angaïs;;;435166.28;6243138.67;-0.25928;43.238247;logement;;;ANGAIS;RUE DE BALAITOUS;commune;commune;1;640230000B1454
64023_0003_00003;64023_0003;3;;Rue de Balaitous;64510;64023;Angaïs;;;435184.26;6243109;-0.259044;43.237987;logement;;;ANGAIS;RUE DE BALAITOUS;commune;commune;1;640230000B1458
64023_0003_00004;64023_0003;4;;Rue de Balaitous;64510;64023;Angaïs;;;435130.73;6243107.1;-0.259701;43.23795;logement;;;ANGAIS;RUE DE BALAITOUS;commune;commune;1;640230000B1453
64023_0003_00005;64023_0003;5;;Rue de Balaitous;64510;64023;Angaïs;;;435140.75;6243060.17;-0.259554;43.237532;logement;;;ANGAIS;RUE DE BALAITOUS;commune;commune;1;640230000B1460
64023_0003_00006;64023_0003;6;;Rue de Balaitous;64510;64023;Angaïs;;;435100.74;6243076.18;-0.260054;43.237661;logement;;;ANGAIS;RUE DE BALAITOUS;commune;commune;1;640230000B1452
64023_0003_00007;64023_0003;7;;Rue de Balaitous;64510;64023;Angaïs;;;435101.53;6243048;-0.26003;43.237408;logement;;;ANGAIS;RUE DE BALAITOUS;commune;commune;1;640230000B1461
64023_0003_00008;64023_0003;8;;Rue de Balaitous;64510;64023;Angaïs;;;435066.08;6243042.56;-0.260463;43.237346;logement;;;ANGAIS;RUE DE BALAITOUS;commune;commune;1;640230000B1450
64023_0003_00009;64023_0003;9;;Rue de Balaitous;64510;64023;Angaïs;;;435121.49;6243009.45;-0.259765;43.237069;logement;;;ANGAIS;RUE DE BALAITOUS;commune;commune;1;640230000B1679
64023_0003_00010;64023_0003;10;;Rue de Balaitous;64510;64023;Angaïs;;;435069.93;6243003.8;-0.260396;43.236999;logement;;;ANGAIS;RUE DE BALAITOUS;commune;commune;1;640230000B1449
64023_0003_00012;64023_0003;12;;Rue de Balaitous;64510;64023;Angaïs;;;435029.4;6242914.79;-0.260849;43.236184;logement;;;ANGAIS;RUE DE BALAITOUS;commune;commune;1;640230000B1446
64023_0003_00013;64023_0003;13;;Rue de Balaitous;64510;64023;Angaïs;;;435101.83;6242984.45;-0.259994;43.236837;logement;;;ANGAIS;RUE DE BALAITOUS;commune;commune;1;640230000B1678
64023_0003_00014;64023_0003;14;;Rue de Balaitous;64510;64023;Angaïs;;;435051.77;6242885.16;-0.260559;43.235926;logement;;;ANGAIS;RUE DE BALAITOUS;commune;commune;1;640230000B1415
64023_0003_00015;64023_0003;15;;Rue de Balaitous;64510;64023;Angaïs;;;435070.78;6242969.38;-0.260368;43.23669;logement;;;ANGAIS;RUE DE BALAITOUS;commune;commune;1;640230000B1448|640230000B1677
64023_0003_00017;64023_0003;17;;Rue de Balaitous;64510;64023;Angaïs;;;435056.97;6242930.45;-0.260518;43.236335;logement;;;ANGAIS;RUE DE BALAITOUS;commune;commune;1;640230000B1447
64023_0015_00002;64023_0015;2;;Rue des Ecoles;64510;64023;Angaïs;;;435611.16;6243110.75;-0.253797;43.238161;logement;;;ANGAIS;RUE DES ECOLES;commune;commune;1;640230000B0763
64023_0015_00003;64023_0015;3;;Rue des Ecoles;64510;64023;Angaïs;;;435621.27;6243144.93;-0.25369;43.238472;logement;;;ANGAIS;RUE DES ECOLES;commune;commune;1;640230000B0564|640230000B1109|640230000B0565
64023_0015_00004;64023_0015;4;;Rue des Ecoles;64510;64023;Angaïs;;;435624.91;6243083.25;-0.253614;43.237919;logement;;;ANGAIS;RUE DES ECOLES;commune;commune;1;640230000B0762
64023_0015_00006;64023_0015;6;;Rue des Ecoles;64510;64023;Angaïs;;;435638.48;6243104.5;-0.253458;43.238115;logement;;;ANGAIS;RUE DES ECOLES;commune;commune;1;640230000B0760|640230000B0761
64023_0015_00007;64023_0015;7;;Rue des Ecoles;64510;64023;Angaïs;;;435728.74;6243081.98;-0.252337;43.237946;logement;;;ANGAIS;RUE DES ECOLES;commune;commune;1;640230000B0576|640230000B0575|640230000B0574|640230000B0577
64023_0015_00008;64023_0015;8;;Rue des Ecoles;64510;64023;Angaïs;;;435658.2;6243103.36;-0.253215;43.238112;logement;;;ANGAIS;RUE DES ECOLES;commune;commune;1;640230000B0759|640230000B0758
64023_0015_00009;64023_0015;9;;Rue des Ecoles;64510;64023;Angaïs;;;435779.87;6243073.2;-0.251704;43.237886;logement;;;ANGAIS;RUE DES ECOLES;commune;commune;1;640230000B1954
64023_0015_00010;64023_0015;10;;Rue des Ecoles;64510;64023;Angaïs;;;435661.91;6243084.73;-0.25316;43.237946;logement;;;ANGAIS;RUE DES ECOLES;commune;commune;1;640230000B0756|640230000B0757
64023_0015_00011;64023_0015;11;;Rue des Ecoles;64510;64023;Angaïs;;;435808.37;6243065.79;-0.25135;43.23783;logement;;;ANGAIS;RUE DES ECOLES;commune;commune;1;640230000B0582|640230000B0581
64023_0015_00012;64023_0015;12;;Rue des Ecoles;64510;64023;Angaïs;;;435691.19;6243084.75;-0.2528;43.237957;logement;;;ANGAIS;RUE DES ECOLES;commune;commune;1;640230000B1857|640230000B0752
64023_0015_00014;64023_0015;14;;Rue des Ecoles;64510;64023;Angaïs;;;435766.01;6243056.52;-0.251866;43.237731;logement;;;ANGAIS;RUE DES ECOLES;commune;commune;1;640230000B0713
64023_0015_00015;64023_0015;15;;Rue des Ecoles;64510;64023;Angaïs;;;435907.01;6243041.26;-0.250125;43.237646;logement;;;ANGAIS;RUE DES ECOLES;commune;commune;1;640230000B0608|640230000B0607
64023_0015_00018;64023_0015;18;;Rue des Ecoles;64510;64023;Angaïs;;;435801.97;6243037.01;-0.251414;43.237569;logement;;;ANGAIS;RUE DES ECOLES;commune;commune;1;640230000B1205|640230000B0706|640230000B0705
64023_0015_00020;64023_0015;20;;Rue des Ecoles;64510;64023;Angaïs;;;435781.19;6243002.6;-0.251652;43.237252;logement;;;ANGAIS;RUE DES ECOLES;commune;commune;1;640230000B0711|640230000B0710|640230000B0708
64023_0015_00022;64023_0015;22;;Rue des Ecoles;64510;64023;Angaïs;;;435844.96;6243016.11;-0.250875;43.237397;logement;;;ANGAIS;RUE DES ECOLES;commune;commune;1;640230000B0703|640230000B0702|640230000B0701|640230000B0709
64023_0015_00024;64023_0015;24;;Rue des Ecoles;64510;64023;Angaïs;;;435875.81;6242994.81;-0.250485;43.237217;logement;;;ANGAIS;RUE DES ECOLES;commune;commune;1;640230000B0700|640230000B0699|640230000B1293|640230000B1292|640230000B0696
64023_0015_00005_bis;64023_0015;5;bis;Rue des Ecoles;64510;64023;Angaïs;;;435656.86;6243153.81;-0.253257;43.238565;logement;;;ANGAIS;RUE DES ECOLES;commune;commune;1;640230000B1108
64023_0015_00012_bis;64023_0015;12;bis;Rue des Ecoles;64510;64023;Angaïs;;;435702.63;6243068.26;-0.252651;43.237813;logement;;;ANGAIS;RUE DES ECOLES;commune;commune;1;640230000B1857|640230000B0752
64023_0027_00001;64023_0027;1;;Rue des Isards;64510;64023;Angaïs;;;434961.41;6243175.07;-0.261817;43.238498;logement;;;ANGAIS;RUE DES ISARDS;commune;commune;1;640230000B1512
64023_0027_00002;64023_0027;2;;Rue des Isards;64510;64023;Angaïs;;;434917.51;6243163.86;-0.262351;43.238381;logement;;;ANGAIS;RUE DES ISARDS;commune;commune;1;640230000B0398
64023_0027_00003;64023_0027;3;;Rue des Isards;64510;64023;Angaïs;;;434942.26;6243199.89;-0.262065;43.238714;logement;;;ANGAIS;RUE DES ISARDS;commune;commune;1;640230000B1513
64023_0027_00005;64023_0027;5;;Rue des Isards;64510;64023;Angaïs;;;434919.45;6243220.64;-0.262356;43.238892;logement;;;ANGAIS;RUE DES ISARDS;commune;commune;1;640230000B1514
64023_0027_00006;64023_0027;6;;Rue des Isards;64510;64023;Angaïs;;;434873.85;6243194.04;-0.262903;43.238636;logement;;;ANGAIS;RUE DES ISARDS;commune;commune;1;640230000B1947
64023_0027_00007;64023_0027;7;;Rue des Isards;64510;64023;Angaïs;;;434889.47;6243263.05;-0.262746;43.239262;logement;;;ANGAIS;RUE DES ISARDS;commune;commune;1;640230000B1515
64023_0027_00009;64023_0027;9;;Rue des Isards;64510;64023;Angaïs;;;434876.29;6243233.44;-0.262893;43.238991;logement;;;ANGAIS;RUE DES ISARDS;commune;commune;1;640230000B1516
64023_0027_00010;64023_0027;10;;Rue des Isards;64510;64023;Angaïs;;;434847.92;6243230.05;-0.26324;43.23895;logement;;;ANGAIS;RUE DES ISARDS;commune;commune;1;64023000ZA0084
64023_0027_00011;64023_0027;11;;Rue des Isards;64510;64023;Angaïs;;;434842.01;6243268.01;-0.263332;43.239289;logement;;;ANGAIS;RUE DES ISARDS;commune;commune;1;64023000ZA0083
64023_0027_00012;64023_0027;12;;Rue des Isards;64510;64023;Angaïs;;;434820.87;6243207.36;-0.263561;43.238736;logement;;;ANGAIS;RUE DES ISARDS;commune;commune;1;64023000ZA0085
64023_0027_00013;64023_0027;13;;Rue des Isards;64510;64023;Angaïs;;;434814.74;6243281.38;-0.263674;43.239399;logement;;;ANGAIS;RUE DES ISARDS;commune;commune;1;64023000ZA0082
64023_0042_00001;64023_0042;1;;Rue Madeland;64510;64023;Angaïs;;;435801.69;6242420.06;-0.251105;43.232024;logement;;;ANGAIS;RUE MADELAND;commune;commune;1;640230000B1899
64023_0042_00002;64023_0042;2;;Rue Madeland;64510;64023;Angaïs;;;435827.1;6242434.48;-0.2508;43.232163;logement;;;ANGAIS;RUE MADELAND;commune;commune;1;640230000B1900
64023_0042_00003;64023_0042;3;;Rue Madeland;64510;64023;Angaïs;;;435876.38;6242437.79;-0.250196;43.232211;logement;;;ANGAIS;RUE MADELAND;commune;commune;1;640230000B1735
64023_0042_00004;64023_0042;4;;Rue Madeland;64510;64023;Angaïs;;;435897.4;6242452.39;-0.249945;43.23235;logement;;;ANGAIS;RUE MADELAND;commune;commune;1;640230000B1757
64023_0042_00005;64023_0042;5;;Rue Madeland;64510;64023;Angaïs;;;435919;6242461.3;-0.249684;43.232438;logement;;;ANGAIS;RUE MADELAND;commune;commune;1;640230000B1756
64023_0042_00006;64023_0042;6;;Rue Madeland;64510;64023;Angaïs;;;435923.35;6242430.63;-0.249615;43.232164;logement;;;ANGAIS;RUE MADELAND;commune;commune;1;640230000B1755
64023_0042_00007;64023_0042;7;;Rue Madeland;64510;64023;Angaïs;;;435965.64;6242444.02;-0.249102;43.2323;logement;;;ANGAIS;RUE MADELAND;commune;commune;1;640230000B1932|640230000B1933|640230000B1929|64023000ZB0087|640230000B1935|640230000B1937|64023000ZB0083
64023_0042_00008;64023_0042;8;;Rue Madeland;64510;64023;Angaïs;;;435988.23;6242429.52;-0.248817;43.232178;logement;;;ANGAIS;RUE MADELAND;commune;commune;1;640230000B1939|64023000ZB0084|64023000ZB0088
64023_0042_00009;64023_0042;9;;Rue Madeland;64510;64023;Angaïs;;;436024.92;6242388.17;-0.248345;43.23182;logement;;;ANGAIS;RUE MADELAND;commune;commune;1;64023000ZB0090|64023000ZB0086
64023_0042_00010;64023_0042;10;;Rue Madeland;64510;64023;Angaïs;;;436052.78;6242394.81;-0.248006;43.23189;logement;;;ANGAIS;RUE MADELAND;commune;commune;1;64023000ZB0091
64023_0042_00011;64023_0042;11;;Rue Madeland;64510;64023;Angaïs;;;436059.03;6242376.64;-0.24792;43.231729;logement;;;ANGAIS;RUE MADELAND;commune;commune;1;64023000ZB0092
64023_0042_00012;64023_0042;12;;Rue Madeland;64510;64023;Angaïs;;;436049.75;6242356.89;-0.248024;43.231548;logement;;;ANGAIS;RUE MADELAND;commune;commune;1;64023000ZB0093
64023_0042_00013;64023_0042;13;;Rue Madeland;64510;64023;Angaïs;;;436024.11;6242334.8;-0.248328;43.23134;logement;;;ANGAIS;RUE MADELAND;commune;commune;1;64023000ZB0094
64023_0042_00014;64023_0042;14;;Rue Madeland;64510;64023;Angaïs;;;436003.89;6242361.33;-0.24859;43.231571;logement;;;ANGAIS;RUE MADELAND;commune;commune;1;64023000ZB0095
64023_0042_00015;64023_0042;15;;Rue Madeland;64510;64023;Angaïs;;;435996.95;6242380.65;-0.248685;43.231742;logement;;;ANGAIS;RUE MADELAND;commune;commune;1;64023000ZB0096
64023_0042_00017;64023_0042;17;;Rue Madeland;64510;64023;Angaïs;;;435895.52;6242406.74;-0.249945;43.231939;logement;;;ANGAIS;RUE MADELAND;commune;commune;1;640230000B1754
64023_0042_00018;64023_0042;18;;Rue Madeland;64510;64023;Angaïs;;;435859.59;6242405.44;-0.250386;43.231914;logement;;;ANGAIS;RUE MADELAND;commune;commune;1;640230000B1740|640230000B1737
64023_0042_00019;64023_0042;19;;Rue Madeland;64510;64023;Angaïs;;;435837.06;6242385.89;-0.250653;43.23173;logement;;;ANGAIS;RUE MADELAND;commune;commune;1;640230000B1892
64023_0042_00020;64023_0042;20;;Rue Madeland;64510;64023;Angaïs;;;435803.16;6242392.52;-0.251073;43.231777;logement;;;ANGAIS;RUE MADELAND;commune;commune;1;640230000B1891
64023_0035_00001;64023_0035;1;;Rue du Lavoir;64510;64023;Angaïs;;;435839.7;6243066.28;-0.250965;43.237846;logement;;;ANGAIS;RUE DU LAVOIR;commune;commune;1;640230000B0584|640230000B0582|640230000B1288|640230000B0586|640230000B1287|640230000B0587
64023_0035_00002;64023_0035;2;;Rue du Lavoir;64510;64023;Angaïs;;;435909.69;6243110.46;-0.250127;43.238269;logement;;;ANGAIS;RUE DU LAVOIR;commune;commune;1;640230000B0603|640230000B0602|640230000B0601|640230000B0599|640230000B1387|640230000B0604|640230000B0605|640230000B0606
64023_0035_00003;64023_0035;3;;Rue du Lavoir;64510;64023;Angaïs;;;435871.91;6243091.77;-0.250582;43.238087;logement;;;ANGAIS;RUE DU LAVOIR;commune;commune;1;640230000B0588|640230000B0590
64023_0075_00002;64023_0075;2;;Rue Porte Neuve;64510;64023;Angaïs;;;435638.64;6242844.03;-0.253324;43.235774;logement;;;ANGAIS;RUE PORTE NEUVE;commune;commune;1;640230000B0900|640230000B0898
64023_0075_00004;64023_0075;4;;Rue Porte Neuve;64510;64023;Angaïs;;;435622.51;6242837.57;-0.253519;43.23571;logement;;;ANGAIS;RUE PORTE NEUVE;commune;commune;1;640230000B0901|640230000B0902
64023_0075_00005;64023_0075;5;;Rue Porte Neuve;64510;64023;Angaïs;;;435548.26;6242713.68;-0.254369;43.234569;logement;;;ANGAIS;RUE PORTE NEUVE;commune;commune;1;640230000B0929|640230000B0928
64023_0075_00006;64023_0075;6;;Rue Porte Neuve;64510;64023;Angaïs;;;435610.62;6242829.27;-0.253661;43.235631;logement;;;ANGAIS;RUE PORTE NEUVE;commune;commune;1;640230000B0904|640230000B0903
64023_0075_00007;64023_0075;7;;Rue Porte Neuve;64510;64023;Angaïs;;;435520.7;6242692.45;-0.254697;43.234368;logement;;;ANGAIS;RUE PORTE NEUVE;commune;commune;1;640230000B1924|640230000B1925
64023_0075_00008;64023_0075;8;;Rue Porte Neuve;64510;64023;Angaïs;;;435594.85;6242811.9;-0.253846;43.235469;logement;;;ANGAIS;RUE PORTE NEUVE;commune;commune;1;640230000B0905
64023_0075_00009;64023_0075;9;;Rue Porte Neuve;64510;64023;Angaïs;;;435509.38;6242650.75;-0.254815;43.233989;logement;;;ANGAIS;RUE PORTE NEUVE;commune;commune;1;640230000B1921|640230000B1926
64023_0075_00010;64023_0075;10;;Rue Porte Neuve;64510;64023;Angaïs;;;435568.9;6242799.95;-0.254159;43.235352;logement;;;ANGAIS;RUE PORTE NEUVE;commune;commune;1;640230000B1918|640230000B0907|640230000B1917
64023_0075_00012;64023_0075;12;;Rue Porte Neuve;64510;64023;Angaïs;;;435543.64;6242759.49;-0.254449;43.234979;logement;;;ANGAIS;RUE PORTE NEUVE;commune;commune;1;640230000B0909
64023_0075_00014;64023_0075;14;;Rue Porte Neuve;64510;64023;Angaïs;;;435526.8;6242737.82;-0.254645;43.234778;logement;;;ANGAIS;RUE PORTE NEUVE;commune;commune;1;640230000B0913|640230000B0910|640230000B0912
64023_0075_00015;64023_0075;15;;Rue Porte Neuve;64510;64023;Angaïs;;;435389.48;6242485.46;-0.256205;43.232459;logement;;;ANGAIS;RUE PORTE NEUVE;commune;commune;1;640230000B1463
64023_0075_00016;64023_0075;16;;Rue Porte Neuve;64510;64023;Angaïs;;;435490.03;6242743.9;-0.2551;43.234819;logement;;;ANGAIS;RUE PORTE NEUVE;commune;commune;1;640230000B0917|640230000B2061
64023_0075_00017;64023_0075;17;;Rue Porte Neuve;64510;64023;Angaïs;;;435365.39;6242453.85;-0.256485;43.232166;logement;;;ANGAIS;RUE PORTE NEUVE;commune;commune;1;640230000B1464
64023_0075_00018;64023_0075;18;;Rue Porte Neuve;64510;64023;Angaïs;;;435509.38;6242723.85;-0.254852;43.234646;logement;;;ANGAIS;RUE PORTE NEUVE;commune;commune;1;640230000B0915|640230000B0916
64023_0075_00020;64023_0075;20;;Rue Porte Neuve;64510;64023;Angaïs;;;435505.02;6242701;-0.254894;43.234439;logement;;;ANGAIS;RUE PORTE NEUVE;commune;commune;1;640230000B0924|640230000B0919
64023_0075_00022;64023_0075;22;;Rue Porte Neuve;64510;64023;Angaïs;;;435502.54;6242684.19;-0.254916;43.234287;logement;;;ANGAIS;RUE PORTE NEUVE;commune;commune;1;640230000B0923|640230000B1966
64023_0075_00024;64023_0075;24;;Rue Porte Neuve;64510;64023;Angaïs;;;435491.77;6242665.72;-0.255039;43.234117;logement;;;ANGAIS;RUE PORTE NEUVE;commune;commune;1;640230000B1967|640230000B0921
64023_0075_00030;64023_0075;30;;Rue Porte Neuve;64510;64023;Angaïs;;;435404.11;6242530.7;-0.256048;43.232871;logement;;;ANGAIS;RUE PORTE NEUVE;commune;commune;1;640230000B0473|640230000B0474
64023_0075_00007_bis;64023_0075;7;bis;Rue Porte Neuve;64510;64023;Angaïs;;;435523.51;6242683.77;-0.254658;43.234291;logement;;;ANGAIS;RUE PORTE NEUVE;commune;commune;1;640230000B1924
64023_0050_00001;64023_0050;1;;Rue d'Ossau;64510;64023;Angaïs;;;435589.49;6242957.98;-0.253986;43.23678;logement;;;ANGAIS;RUE D OSSAU;commune;commune;1;640230000B0874|640230000B1552
64023_0050_00002;64023_0050;2;;Rue d'Ossau;64510;64023;Angaïs;;;435537.85;6242976.14;-0.25463;43.236924;logement;;;ANGAIS;RUE D OSSAU;commune;commune;1;640230000B1021
64023_0050_00003;64023_0050;3;;Rue d'Ossau;64510;64023;Angaïs;;;435509.4;6242895.86;-0.254939;43.236192;logement;;;ANGAIS;RUE D OSSAU;commune;commune;1;640230000B1622
64023_0050_00004;64023_0050;4;;Rue d'Ossau;64510;64023;Angaïs;;;435527.17;6242960;-0.254753;43.236775;logement;;;ANGAIS;RUE D OSSAU;commune;commune;1;640230000B1020
64023_0050_00005;64023_0050;5;;Rue d'Ossau;64510;64023;Angaïs;;;435485.8;6242805.04;-0.255183;43.235367;logement;;;ANGAIS;RUE D OSSAU;commune;commune;1;640230000B1154|640230000B1479|640230000B1480|640230000B1165|640230000B1478|640230000B1617
64023_0050_00006;64023_0050;6;;Rue d'Ossau;64510;64023;Angaïs;;;435504.73;6242956.36;-0.255027;43.236734;logement;;;ANGAIS;RUE D OSSAU;commune;commune;1;640230000B1019
64023_0050_00007;64023_0050;7;;Rue d'Ossau;64510;64023;Angaïs;;;435491.46;6242869.12;-0.255146;43.235945;logement;;;ANGAIS;RUE D OSSAU;commune;commune;1;640230000B1617
64023_0050_00008;64023_0050;8;;Rue d'Ossau;64510;64023;Angaïs;;;435487.24;6242948.4;-0.255238;43.236656;logement;;;ANGAIS;RUE D OSSAU;commune;commune;1;640230000B1018
64023_0050_00009;64023_0050;9;;Rue d'Ossau;64510;64023;Angaïs;;;435466.82;6242855.56;-0.255442;43.235814;logement;;;ANGAIS;RUE D OSSAU;commune;commune;1;640230000B1615
64023_0050_00010;64023_0050;10;;Rue d'Ossau;64510;64023;Angaïs;;;435472.5;6242928.21;-0.255409;43.236469;logement;;;ANGAIS;RUE D OSSAU;commune;commune;1;640230000B1017|640230000B1792
64023_0050_00011;64023_0050;11;;Rue d'Ossau;64510;64023;Angaïs;;;435444.87;6242859.92;-0.255714;43.235845;logement;;;ANGAIS;RUE D OSSAU;commune;commune;1;640230000B1613
64023_0050_00012;64023_0050;12;;Rue d'Ossau;64510;64023;Angaïs;;;435453.66;6242887.7;-0.25562;43.236098;logement;;;ANGAIS;RUE D OSSAU;commune;commune;1;640230000B1883|640230000B1882|64023000ZA0136
64023_0050_00013;64023_0050;13;;Rue d'Ossau;64510;64023;Angaïs;;;435449.62;6242813.32;-0.255632;43.235428;logement;;;ANGAIS;RUE D OSSAU;commune;commune;1;640230000B1611
64023_0050_00014;64023_0050;14;;Rue d'Ossau;64510;64023;Angaïs;;;435432.98;6242881.44;-0.255871;43.236034;logement;;;ANGAIS;RUE D OSSAU;commune;commune;1;64023000ZA0129
64023_0050_00015;64023_0050;15;;Rue d'Ossau;64510;64023;Angaïs;;;435411.74;6242831.8;-0.256107;43.23558;logement;;;ANGAIS;RUE D OSSAU;commune;commune;1;640230000B1609
64023_0050_00017;64023_0050;17;;Rue d'Ossau;64510;64023;Angaïs;;;435395.73;6242818.33;-0.256297;43.235453;logement;;;ANGAIS;RUE D OSSAU;commune;commune;1;640230000B1607
64023_0050_00019;64023_0050;19;;Rue d'Ossau;64510;64023;Angaïs;;;435396.43;6242780.25;-0.256269;43.235111;logement;;;ANGAIS;RUE D OSSAU;commune;commune;1;640230000B1605
64023_0050_00023;64023_0050;23;;Rue d'Ossau;64510;64023;Angaïs;;;435378.21;6242681.64;-0.256443;43.234218;logement;;;ANGAIS;RUE D OSSAU;commune;commune;1;640230000B1976
64023_0050_00024;64023_0050;24;;Rue d'Ossau;64510;64023;Angaïs;;;435432.81;6242654.46;-0.255758;43.233994;logement;;;ANGAIS;RUE D OSSAU;commune;commune;1;640230000B1834
64023_0050_00012_bis;64023_0050;12;bis;Rue d'Ossau;64510;64023;Angaïs;;;435440.91;6242904.03;-0.255785;43.23624;logement;;;ANGAIS;RUE D OSSAU;commune;commune;1;640230000B1881|640230000B1790
64023_0050_00001_bis;64023_0050;1;bis;Rue d'Ossau;64510;64023;Angaïs;;;435540.52;6242938.42;-0.254578;43.236586;logement;;;ANGAIS;RUE D OSSAU;commune;commune;1;640230000B1620
64023_0050_00023_bis;64023_0050;23;bis;Rue d'Ossau;64510;64023;Angaïs;;;435398.05;6242661.79;-0.256189;43.234047;logement;;;ANGAIS;RUE D OSSAU;commune;commune;1;640230000B1975
64023_0050_00002_bis;64023_0050;2;bis;Rue d'Ossau;64510;64023;Angaïs;;;435572.25;6242976.05;-0.254207;43.236936;logement;;;ANGAIS;RUE D OSSAU;commune;commune;1;640230000B2086
64023_0016_00001;64023_0016;1;;Rue des Clabades;64510;64023;Angaïs;;;435235.64;6243163.4;-0.25844;43.238495;logement;;;ANGAIS;RUE DES CLABADES;commune;commune;1;640230000B1710|64023000ZA0116
64023_0016_00002;64023_0016;2;;Rue des Clabades;64510;64023;Angaïs;;;435273.25;6243164.08;-0.257978;43.238515;logement;;;ANGAIS;RUE DES CLABADES;commune;commune;1;640230000B1666
64023_0016_00003;64023_0016;3;;Rue des Clabades;64510;64023;Angaïs;;;435262.93;6243185.98;-0.258116;43.238708;logement;;;ANGAIS;RUE DES CLABADES;commune;commune;1;640230000B1711|64023000ZA0117
64023_0016_00004;64023_0016;4;;Rue des Clabades;64510;64023;Angaïs;;;435301.77;6243190.83;-0.257641;43.238766;logement;;;ANGAIS;RUE DES CLABADES;commune;commune;1;64023000ZA0104|640230000B1696|640230000B1665
64023_0016_00005;64023_0016;5;;Rue des Clabades;64510;64023;Angaïs;;;435283.57;6243225.07;-0.257882;43.239067;logement;;;ANGAIS;RUE DES CLABADES;commune;commune;1;64023000ZA0102|640230000B1693
64023_0016_00006;64023_0016;6;;Rue des Clabades;64510;64023;Angaïs;;;435332.31;6243197.8;-0.257269;43.23884;logement;;;ANGAIS;RUE DES CLABADES;commune;commune;1;64023000ZA0114|640230000B1707|640230000B1709
64023_0016_00007;64023_0016;7;;Rue des Clabades;64510;64023;Angaïs;;;435246.82;6243239.27;-0.258341;43.239181;logement;;;ANGAIS;RUE DES CLABADES;commune;commune;1;64023000ZA0108|640230000B1694
64023_0016_00008;64023_0016;8;;Rue des Clabades;64510;64023;Angaïs;;;435299.82;6243226.51;-0.257683;43.239086;logement;;;ANGAIS;RUE DES CLABADES;commune;commune;1;640230000B1706|64023000ZA0112
64023_0016_00009;64023_0016;9;;Rue des Clabades;64510;64023;Angaïs;;;435229.19;6243265.25;-0.258571;43.239408;logement;;;ANGAIS;RUE DES CLABADES;commune;commune;1;64023000ZA0109
64023_0016_00012;64023_0016;12;;Rue des Clabades;64510;64023;Angaïs;;;435257.68;6243289.45;-0.258233;43.239636;logement;;;ANGAIS;RUE DES CLABADES;commune;commune;1;64023000ZA0110
64023_0055_00001;64023_0055;1;;Rue des Paysans;64510;64023;Angaïs;;;435920.24;6242938.01;-0.24991;43.236723;logement;;;ANGAIS;RUE DES PAYSANS;commune;commune;1;640230000B0642|640230000B1290|640230000B0640
64023_0055_00002;64023_0055;2;;Rue des Paysans;64510;64023;Angaïs;;;435865.43;6242932.48;-0.250581;43.236653;logement;;;ANGAIS;RUE DES PAYSANS;commune;commune;1;640230000B0695|640230000B0694|640230000B0689|640230000B0688
64023_0055_00003;64023_0055;3;;Rue des Paysans;64510;64023;Angaïs;;;435895.01;6242923.81;-0.250213;43.236586;logement;;;ANGAIS;RUE DES PAYSANS;commune;commune;1;640230000B0989|640230000B0991|640230000B0645|640230000B0990|640230000B0643|640230000B0644
64023_0055_00004;64023_0055;4;;Rue des Paysans;64510;64023;Angaïs;;;435837.57;6242927.51;-0.250921;43.236598;logement;;;ANGAIS;RUE DES PAYSANS;commune;commune;1;640230000B0693|640230000B0690
64023_0055_00005;64023_0055;5;;Rue des Paysans;64510;64023;Angaïs;;;435872.12;6242899.38;-0.250482;43.236358;logement;;;ANGAIS;RUE DES PAYSANS;commune;commune;1;640230000B0991|640230000B0646|640230000B0647
64023_0055_00006;64023_0055;6;;Rue des Paysans;64510;64023;Angaïs;;;435816.47;6242911.02;-0.251172;43.236442;logement;;;ANGAIS;RUE DES PAYSANS;commune;commune;1;640230000B0692|640230000B0691|640230000B1969|640230000B1968
64023_0055_00007;64023_0055;7;;Rue des Paysans;64510;64023;Angaïs;;;435875.66;6242884.66;-0.250431;43.236227;logement;;;ANGAIS;RUE DES PAYSANS;commune;commune;1;640230000B0648
64023_0055_00009;64023_0055;9;;Rue des Paysans;64510;64023;Angaïs;;;435848.64;6242898.13;-0.25077;43.236338;logement;;;ANGAIS;RUE DES PAYSANS;commune;commune;1;640230000B1378|640230000B1382|640230000B0654
64023_0055_00010;64023_0055;10;;Rue des Paysans;64510;64023;Angaïs;;;435758.01;6242872.37;-0.251871;43.236073;logement;;;ANGAIS;RUE DES PAYSANS;commune;commune;1;640230000B0680|640230000B0679|640230000B0681|640230000B0682
64023_0055_00011;64023_0055;11;;Rue des Paysans;64510;64023;Angaïs;;;435804.59;6242865.45;-0.251295;43.236028;logement;;;ANGAIS;RUE DES PAYSANS;commune;commune;1;640230000B1920|640230000B0657
64023_0055_00012;64023_0055;12;;Rue des Paysans;64510;64023;Angaïs;;;435706.93;6242834.98;-0.25248;43.235718;logement;;;ANGAIS;RUE DES PAYSANS;commune;commune;1;640230000B0685|640230000B0671|640230000B0670|640230000B0674|640230000B0673|640230000B0672
64023_0055_00013;64023_0055;13;;Rue des Paysans;64510;64023;Angaïs;;;435767.93;6242836.58;-0.251731;43.235755;logement;;;ANGAIS;RUE DES PAYSANS;commune;commune;1;640230000B0666
64023_0055_00015;64023_0055;15;;Rue des Paysans;64510;64023;Angaïs;;;435749.51;6242823.99;-0.251951;43.235635;logement;;;ANGAIS;RUE DES PAYSANS;commune;commune;1;
64023_0055_00017;64023_0055;17;;Rue des Paysans;64510;64023;Angaïs;;;435717.43;6242815.41;-0.252341;43.235546;logement;;;ANGAIS;RUE DES PAYSANS;commune;commune;1;640230000B1042|640230000B0667|640230000B0668
64023_0055_00002_bis;64023_0055;2;bis;Rue des Paysans;64510;64023;Angaïs;;;435838.91;6242954.27;-0.250918;43.236839;logement;;;ANGAIS;RUE DES PAYSANS;commune;commune;1;640230000B0688|640230000B0689|640230000B0694
64023_0055_00007_bis;64023_0055;7;bis;Rue des Paysans;64510;64023;Angaïs;;;435854.96;6242881.73;-0.250684;43.236193;logement;;;ANGAIS;RUE DES PAYSANS;commune;commune;1;640230000B1381|640230000B0652|640230000B1380|640230000B1375|640230000B1379|640230000B1377
64023_0079_00002;64023_0079;2;;Rue du Pre du Roy;64510;64023;Angaïs;;;435827;6242315.43;-0.250741;43.231093;logement;;;ANGAIS;RUE DU PRE DU ROY;commune;commune;1;640230000B1667
64023_0079_00004;64023_0079;4;;Rue du Pre du Roy;64510;64023;Angaïs;;;435852.26;6242308.61;-0.250427;43.231041;logement;;;ANGAIS;RUE DU PRE DU ROY;commune;commune;1;640230000B1668
64023_0079_00006;64023_0079;6;;Rue du Pre du Roy;64510;64023;Angaïs;;;435870.11;6242356.72;-0.250232;43.23148;logement;;;ANGAIS;RUE DU PRE DU ROY;commune;commune;1;640230000B1683
64023_0079_00008;64023_0079;8;;Rue du Pre du Roy;64510;64023;Angaïs;;;435873.14;6242323.55;-0.250178;43.231183;logement;;;ANGAIS;RUE DU PRE DU ROY;commune;commune;1;640230000B1684
64023_0079_00010;64023_0079;10;;Rue du Pre du Roy;64510;64023;Angaïs;;;435895.12;6242367.37;-0.24993;43.231585;logement;;;ANGAIS;RUE DU PRE DU ROY;commune;commune;1;640230000B1685
64023_0079_00012;64023_0079;12;;Rue du Pre du Roy;64510;64023;Angaïs;;;435922.08;6242360.25;-0.249595;43.231531;logement;;;ANGAIS;RUE DU PRE DU ROY;commune;commune;1;640230000B1686
64023_0079_00014;64023_0079;14;;Rue du Pre du Roy;64510;64023;Angaïs;;;435944.64;6242378.68;-0.249327;43.231705;logement;;;ANGAIS;RUE DU PRE DU ROY;commune;commune;1;640230000B1687|64023000ZB0089|640230000B1927
64023_0079_00016;64023_0079;16;;Rue du Pre du Roy;64510;64023;Angaïs;;;435936.89;6242403.81;-0.249435;43.231928;logement;;;ANGAIS;RUE DU PRE DU ROY;commune;commune;1;640230000B1688
64023_0012_00001;64023_0012;1;;Rue du Centre;64510;64023;Angaïs;;;435718.17;6243028.78;-0.25244;43.237464;logement;;;ANGAIS;RUE DU CENTRE;commune;commune;1;640230000B1997|640230000B2000
64023_0012_00002;64023_0012;2;;Rue du Centre;64510;64023;Angaïs;;;435690.18;6243054.19;-0.252797;43.237682;logement;;;ANGAIS;RUE DU CENTRE;commune;commune;1;640230000B1159|640230000B1157
64023_0012_00003;64023_0012;3;;Rue du Centre;64510;64023;Angaïs;;;435713.92;6243006.6;-0.252481;43.237263;logement;;;ANGAIS;RUE DU CENTRE;commune;commune;1;640230000B0717|640230000B0718|640230000B0719|640230000B0721|640230000B0722
64023_0012_00004;64023_0012;4;;Rue du Centre;64510;64023;Angaïs;;;435663.56;6243030.15;-0.253112;43.237456;logement;;;ANGAIS;RUE DU CENTRE;commune;commune;1;640230000B0747|640230000B1962|640230000B1842|640230000B1964|640230000B2047|640230000B2048
64023_0012_00005;64023_0012;5;;Rue du Centre;64510;64023;Angaïs;;;435687.96;6242994.54;-0.252794;43.237145;logement;;;ANGAIS;RUE DU CENTRE;commune;commune;1;640230000B0728|640230000B0985|640230000B0727
64023_0012_00006;64023_0012;6;;Rue du Centre;64510;64023;Angaïs;;;435695.39;6243060.21;-0.252736;43.237738;logement;;;ANGAIS;RUE DU CENTRE;commune;commune;1;640230000B1158|640230000B1156
64023_0012_00007;64023_0012;7;;Rue du Centre;64510;64023;Angaïs;;;435678.76;6242976.67;-0.252898;43.236981;logement;;;ANGAIS;RUE DU CENTRE;commune;commune;1;640230000B0729|640230000B0730
64023_0012_00001_bis;64023_0012;1;bis;Rue du Centre;64510;64023;Angaïs;;;435704.39;6243022.01;-0.252606;43.237398;logement;;;ANGAIS;RUE DU CENTRE;commune;commune;1;640230000B1998|640230000B2021
64023_0012_00002_bis;64023_0012;2;bis;Rue du Centre;64510;64023;Angaïs;;;435688.28;6243039.7;-0.252813;43.237551;logement;;;ANGAIS;RUE DU CENTRE;commune;commune;1;640230000B1961|640230000B1963|640230000B1965
64023_0018_00001;64023_0018;1;;Rue du Gabizos;64510;64023;Angaïs;;;434984.89;6243081.86;-0.261481;43.237669;logement;;;ANGAIS;RUE DU GABIZOS;commune;commune;1;640230000B1328
64023_0018_00002;64023_0018;2;;Rue du Gabizos;64510;64023;Angaïs;;;434933.28;6243112.47;-0.262131;43.237925;logement;;;ANGAIS;RUE DU GABIZOS;commune;commune;1;640230000B1339
64023_0018_00004;64023_0018;4;;Rue du Gabizos;64510;64023;Angaïs;;;434952.34;6243081.53;-0.261881;43.237654;logement;;;ANGAIS;RUE DU GABIZOS;commune;commune;1;640230000B1338
64023_0018_00005;64023_0018;5;;Rue du Gabizos;64510;64023;Angaïs;;;435032.93;6243031.8;-0.260865;43.237237;logement;;;ANGAIS;RUE DU GABIZOS;commune;commune;1;640230000B1330
64023_0018_00006;64023_0018;6;;Rue du Gabizos;64510;64023;Angaïs;;;434946.48;6243048.06;-0.261936;43.237351;logement;;;ANGAIS;RUE DU GABIZOS;commune;commune;1;640230000B1337
64023_0018_00007;64023_0018;7;;Rue du Gabizos;64510;64023;Angaïs;;;435021.26;6242999.35;-0.260992;43.236941;logement;;;ANGAIS;RUE DU GABIZOS;commune;commune;1;640230000B1331
64023_0018_00008;64023_0018;8;;Rue du Gabizos;64510;64023;Angaïs;;;434962.66;6243030.26;-0.261728;43.237197;logement;;;ANGAIS;RUE DU GABIZOS;commune;commune;1;640230000B1336
64023_0018_00009;64023_0018;9;;Rue du Gabizos;64510;64023;Angaïs;;;435033.91;6242978.8;-0.260826;43.236761;logement;;;ANGAIS;RUE DU GABIZOS;commune;commune;1;640230000B1332
64023_0018_00010;64023_0018;10;;Rue du Gabizos;64510;64023;Angaïs;;;434982.97;6243003.94;-0.261465;43.236968;logement;;;ANGAIS;RUE DU GABIZOS;commune;commune;1;640230000B1335
64023_0018_00012;64023_0018;12;;Rue du Gabizos;64510;64023;Angaïs;;;434988.91;6242974.32;-0.261377;43.236704;logement;;;ANGAIS;RUE DU GABIZOS;commune;commune;1;640230000B1334
64023_0018_00014;64023_0018;14;;Rue du Gabizos;64510;64023;Angaïs;;;435008.7;6242941.46;-0.261117;43.236416;logement;;;ANGAIS;RUE DU GABIZOS;commune;commune;1;640230000B1572
64023_0080_00002;64023_0080;2;;Rue des Pyrénées;64510;64023;Angaïs;;;435555.66;6243120.16;-0.254484;43.238225;logement;;;ANGAIS;RUE DES PYRENEES;commune;commune;1;640230000B0840|640230000B0841
64023_0080_00003;64023_0080;3;;Rue des Pyrénées;64510;64023;Angaïs;;;435581.37;6243067.02;-0.254141;43.237757;logement;;;ANGAIS;RUE DES PYRENEES;commune;commune;1;640230000B0775
64023_0080_00004;64023_0080;4;;Rue des Pyrénées;64510;64023;Angaïs;;;435546.99;6243075.67;-0.254568;43.237822;logement;;;ANGAIS;RUE DES PYRENEES;commune;commune;1;640230000B0860
64023_0080_00005;64023_0080;5;;Rue des Pyrénées;64510;64023;Angaïs;;;435598.51;6243023.04;-0.253908;43.237368;logement;;;ANGAIS;RUE DES PYRENEES;commune;commune;1;640230000B0773|640230000B0772|640230000B0770
64023_0080_00006;64023_0080;6;;Rue des Pyrénées;64510;64023;Angaïs;;;435552.81;6243041.16;-0.254479;43.237514;logement;;;ANGAIS;RUE DES PYRENEES;commune;commune;1;640230000B1845|640230000B0862|640230000B0870
64023_0080_00007;64023_0080;7;;Rue des Pyrénées;64510;64023;Angaïs;;;435606.95;6243008.67;-0.253797;43.237242;logement;;;ANGAIS;RUE DES PYRENEES;commune;commune;1;640230000B0740|640230000B0743|640230000B0741|640230000B0742
64023_0080_00008;64023_0080;8;;Rue des Pyrénées;64510;64023;Angaïs;;;435563.37;6243020.92;-0.254339;43.237336;logement;;;ANGAIS;RUE DES PYRENEES;commune;commune;1;640230000B0864|640230000B1472|640230000B1471|640230000B1470
64023_0080_00009;64023_0080;9;;Rue des Pyrénées;64510;64023;Angaïs;;;435615.74;6242988.95;-0.253679;43.237068;logement;;;ANGAIS;RUE DES PYRENEES;commune;commune;1;640230000B1518|640230000B0745|640230000B0744|640230000B0739
64023_0080_00010;64023_0080;10;;Rue des Pyrénées;64510;64023;Angaïs;;;435581.77;6242997.8;-0.254101;43.237135;logement;;;ANGAIS;RUE DES PYRENEES;commune;commune;1;640230000B0866|640230000B0865|640230000B0867
64023_0080_00011;64023_0080;11;;Rue des Pyrénées;64510;64023;Angaïs;;;435633.45;6242962.74;-0.253448;43.236839;logement;;;ANGAIS;RUE DES PYRENEES;commune;commune;1;640230000B1856|640230000B1521|640230000B2049
64023_0080_00012;64023_0080;12;;Rue des Pyrénées;64510;64023;Angaïs;;;435600.93;6242947.39;-0.25384;43.236689;logement;;;ANGAIS;RUE DES PYRENEES;commune;commune;1;640230000B0875|640230000B0879|640230000B1941|640230000B1940|640230000B0880|640230000B0878
64023_0080_00013;64023_0080;13;;Rue des Pyrénées;64510;64023;Angaïs;;;435648.77;6242941.74;-0.253249;43.236656;logement;;;ANGAIS;RUE DES PYRENEES;commune;commune;1;640230000B2080|640230000B2081|640230000B2079|640230000B2076|640230000B2078|640230000B2077|640230000B0731|640230000B0732
64023_0080_00015;64023_0080;15;;Rue des Pyrénées;64510;64023;Angaïs;;;435675.73;6242875.32;-0.252884;43.236069;logement;;;ANGAIS;RUE DES PYRENEES;commune;commune;1;640230000B0677|640230000B1629|640230000B1625|640230000B1627
64023_0080_00016;64023_0080;16;;Rue des Pyrénées;64510;64023;Angaïs;;;435620.86;6242925.65;-0.253584;43.236501;logement;;;ANGAIS;RUE DES PYRENEES;commune;commune;1;640230000B0891|640230000B0890|640230000B0881|640230000B0889|640230000B0888
64023_0080_00017;64023_0080;17;;Rue des Pyrénées;64510;64023;Angaïs;;;435715.18;6242887.05;-0.252405;43.236189;logement;;;ANGAIS;RUE DES PYRENEES;commune;commune;1;640230000B1630|640230000B1626
64023_0080_00018;64023_0080;18;;Rue des Pyrénées;64510;64023;Angaïs;;;435626.72;6242910.05;-0.253504;43.236363;logement;;;ANGAIS;RUE DES PYRENEES;commune;commune;1;640230000B1851|640230000B0893|640230000B1852|640230000B0887|640230000B0882|640230000B0883
64023_0080_00020;64023_0080;20;;Rue des Pyrénées;64510;64023;Angaïs;;;435642.77;6242888.92;-0.253296;43.236179;logement;;;ANGAIS;RUE DES PYRENEES;commune;commune;1;640230000B0894|640230000B0895|640230000B0886|640230000B0885|640230000B0884|640230000B1481
64023_0080_00021;64023_0080;21;;Rue des Pyrénées;64510;64023;Angaïs;;;435730.82;6242771.24;-0.252154;43.235154;logement;;;ANGAIS;RUE DES PYRENEES;commune;commune;1;640230000B1717
64023_0080_00022;64023_0080;22;;Rue des Pyrénées;64510;64023;Angaïs;;;435655.39;6242867.37;-0.25313;43.23599;logement;;;ANGAIS;RUE DES PYRENEES;commune;commune;1;640230000B1942|640230000B1945|640230000B1944
64023_0080_00024;64023_0080;24;;Rue des Pyrénées;64510;64023;Angaïs;;;435660.23;6242838.8;-0.253056;43.235735;logement;;;ANGAIS;RUE DES PYRENEES;commune;commune;1;640230000B0937|640230000B0936|640230000B0935|640230000B0934
64023_0080_00025;64023_0080;25;;Rue des Pyrénées;64510;64023;Angaïs;;;435780.15;6242560.7;-0.251441;43.23328;logement;;;ANGAIS;RUE DES PYRENEES;commune;commune;1;640230000B0248|640230000B0247|640230000B0249|640230000B1371|640230000B1373
64023_0080_00026;64023_0080;26;;Rue des Pyrénées;64510;64023;Angaïs;;;435659.95;6242808.32;-0.253044;43.235461;logement;;;ANGAIS;RUE DES PYRENEES;commune;commune;1;640230000B0938|640230000B0931|640230000B0930|640230000B0932|640230000B0933
64023_0080_00027;64023_0080;27;;Rue des Pyrénées;64510;64023;Angaïs;;;435790.49;6242537.02;-0.251302;43.233071;logement;;;ANGAIS;RUE DES PYRENEES;commune;commune;1;640230000B2027
64023_0080_00028;64023_0080;28;;Rue des Pyrénées;64510;64023;Angaïs;;;435683.57;6242781.31;-0.25274;43.235227;logement;;;ANGAIS;RUE DES PYRENEES;commune;commune;1;640230000B0939|640230000B1483|640230000B1486|640230000B1484|640230000B1488|640230000B1490|640230000B1491|640230000B1485|640230000B1482
64023_0080_00030;64023_0080;30;;Rue des Pyrénées;64510;64023;Angaïs;;;435693.48;6242745.63;-0.2526;43.23491;logement;;;ANGAIS;RUE DES PYRENEES;commune;commune;1;640230000B0947|640230000B0946|640230000B0945
64023_0080_00032;64023_0080;32;;Rue des Pyrénées;64510;64023;Angaïs;;;435707.81;6242722.12;-0.252412;43.234704;logement;;;ANGAIS;RUE DES PYRENEES;commune;commune;1;640230000B1991
64023_0080_00034;64023_0080;34;;Rue des Pyrénées;64510;64023;Angaïs;;;435715.89;6242689.08;-0.252296;43.23441;logement;;;ANGAIS;RUE DES PYRENEES;commune;commune;1;640230000B1970
64023_0080_00036;64023_0080;36;;Rue des Pyrénées;64510;64023;Angaïs;;;435724.03;6242624.21;-0.252163;43.23383;logement;;;ANGAIS;RUE DES PYRENEES;commune;commune;1;640230000B1839|640230000B0971|640230000B0962|640230000B1551|640230000B1549|640230000B0968|640230000B1547
64023_0080_00038;64023_0080;38;;Rue des Pyrénées;64510;64023;Angaïs;;;435726.85;6242590.04;-0.252111;43.233524;logement;;;ANGAIS;RUE DES PYRENEES;commune;commune;1;640230000B0973|640230000B0974|640230000B0975|640230000B1039|640230000B1105
64023_0080_00040;64023_0080;40;;Rue des Pyrénées;64510;64023;Angaïs;;;435746.21;6242518.93;-0.251837;43.232892;logement;;;ANGAIS;RUE DES PYRENEES;commune;commune;1;640230000B1820
64023_0080_00044;64023_0080;44;;Rue des Pyrénées;64510;64023;Angaïs;;;435757.6;6242493.2;-0.251684;43.232665;logement;;;ANGAIS;RUE DES PYRENEES;commune;commune;1;640230000B1036|640230000B1037
64023_0080_00046;64023_0080;46;;Rue des Pyrénées;64510;64023;Angaïs;;;435759.24;6242465.76;-0.25165;43.232419;logement;;;ANGAIS;RUE DES PYRENEES;commune;commune;1;640230000B0980|640230000B1038|640230000B0979
64023_0080_00048;64023_0080;48;;Rue des Pyrénées;64510;64023;Angaïs;;;435762.58;6242448.04;-0.2516;43.232261;logement;;;ANGAIS;RUE DES PYRENEES;commune;commune;1;640230000B0981
64023_0080_00050;64023_0080;50;;Rue des Pyrénées;64510;64023;Angaïs;;;435767.28;6242429.94;-0.251533;43.2321;logement;;;ANGAIS;RUE DES PYRENEES;commune;commune;1;640230000B0983
64023_0080_00052;64023_0080;52;;Rue des Pyrénées;64510;64023;Angaïs;;;435768.6;6242377.03;-0.25149;43.231625;logement;;;ANGAIS;RUE DES PYRENEES;commune;commune;1;640230000B2036
64023_0080_00054;64023_0080;54;;Rue des Pyrénées;64510;64023;Angaïs;;;435779.99;6242335.62;-0.251329;43.231257;logement;;;ANGAIS;RUE DES PYRENEES;commune;commune;1;64023000ZB0079
64023_0080_00056;64023_0080;56;;Rue des Pyrénées;64510;64023;Angaïs;;;435799.73;6242192.61;-0.251014;43.229979;logement;;;ANGAIS;RUE DES PYRENEES;commune;commune;1;640230000B1234
64023_0080_00060;64023_0080;60;;Rue des Pyrénées;64510;64023;Angaïs;;;435821.68;6242140.97;-0.250718;43.229523;logement;;;ANGAIS;RUE DES PYRENEES;commune;commune;1;640230000B1467
64023_0080_00064;64023_0080;64;;Rue des Pyrénées;64510;64023;Angaïs;;;435835.73;6242055.38;-0.250502;43.228759;logement;;;ANGAIS;RUE DES PYRENEES;commune;commune;1;640230000B2012
64023_0080_00066;64023_0080;66;;Rue des Pyrénées;64510;64023;Angaïs;;;435820.95;6241988.9;-0.25065;43.228156;logement;;;ANGAIS;RUE DES PYRENEES;commune;commune;1;640230000B1719
64023_0080_00068;64023_0080;68;;Rue des Pyrénées;64510;64023;Angaïs;;;435837.11;6241956.52;-0.250435;43.227871;logement;;;ANGAIS;RUE DES PYRENEES;commune;commune;1;640230000B1409
64023_0080_00070;64023_0080;70;;Rue des Pyrénées;64510;64023;Angaïs;;;435847.41;6241935.85;-0.250298;43.227689;logement;;;ANGAIS;RUE DES PYRENEES;commune;commune;1;640230000B1197
64023_0080_00072;64023_0080;72;;Rue des Pyrénées;64510;64023;Angaïs;;;435839.31;6241879.43;-0.250369;43.227179;logement;;;ANGAIS;RUE DES PYRENEES;commune;commune;1;64023000ZB0075|64023000ZB0076|64023000ZB0074
64023_0080_00074;64023_0080;74;;Rue des Pyrénées;64510;64023;Angaïs;;;435820.02;6241916.84;-0.250625;43.227508;logement;;;ANGAIS;RUE DES PYRENEES;commune;commune;1;64023000ZB0102
64023_0080_00076;64023_0080;76;;Rue des Pyrénées;64510;64023;Angaïs;;;435803.32;6241898.72;-0.250821;43.227339;logement;;;ANGAIS;RUE DES PYRENEES;commune;commune;1;64023000ZB0100|64023000ZB0101
64023_0080_00034_bis;64023_0080;34;bis;Rue des Pyrénées;64510;64023;Angaïs;;;435724.36;6242669.59;-0.252182;43.234238;logement;;;ANGAIS;RUE DES PYRENEES;commune;commune;1;640230000B1971
64023_0080_00052_bis;64023_0080;52;bis;Rue des Pyrénées;64510;64023;Angaïs;;;435779.94;6242364.1;-0.251344;43.231513;logement;;;ANGAIS;RUE DES PYRENEES;commune;commune;1;640230000B2036|640230000B2037
64023_0080_00028_ter;64023_0080;28;ter;Rue des Pyrénées;64510;64023;Angaïs;;;435636.98;6242734.72;-0.253289;43.234791;logement;;;ANGAIS;RUE DES PYRENEES;commune;commune;1;640230000B1489|640230000B1487
64023_0080_00050_bis;64023_0080;50;bis;Rue des Pyrénées;64510;64023;Angaïs;;;435757.73;6242421.21;-0.251646;43.232018;logement;;;ANGAIS;RUE DES PYRENEES;commune;commune;1;640230000B0983
64023_0080_00034_ter;64023_0080;34;ter;Rue des Pyrénées;64510;64023;Angaïs;;;435718.43;6242665.94;-0.252253;43.234203;logement;;;ANGAIS;RUE DES PYRENEES;commune;commune;1;640230000B1971
64023_0080_00017_bis;64023_0080;17;bis;Rue des Pyrénées;64510;64023;Angaïs;;;435708.56;6242894.33;-0.25249;43.236252;logement;;;ANGAIS;RUE DES PYRENEES;commune;commune;1;640230000B1630|640230000B1628|640230000B1626
64023_0030_00001;64023_0030;1;;Rue du Lac;64510;64023;Angaïs;;;436181.15;6242976.12;-0.246722;43.237162;logement;;;ANGAIS;RUE DU LAC;commune;commune;1;640230000B1298|640230000B0020|640230000B0021|640230000B0022|640230000B1295|640230000B1297|640230000B0019
64023_0030_00002;64023_0030;2;;Rue du Lac;64510;64023;Angaïs;;;436172.24;6242888.03;-0.246787;43.236367;logement;;;ANGAIS;RUE DU LAC;commune;commune;1;640230000B1905|640230000B1906
64023_0030_00003;64023_0030;3;;Rue du Lac;64510;64023;Angaïs;;;436384.8;6242889.75;-0.244175;43.236461;logement;;;ANGAIS;RUE DU LAC;commune;commune;1;640230000B1237|640230000B1236|640230000B0023
64023_0030_00005;64023_0030;5;;Rue du Lac;64510;64023;Angaïs;;;436465.72;6242976.32;-0.243224;43.237269;logement;;;ANGAIS;RUE DU LAC;commune;commune;1;640230000B1704
64023_0030_00006;64023_0030;6;;Rue du Lac;64510;64023;Angaïs;;;436312.53;6242859.45;-0.245048;43.236162;logement;;;ANGAIS;RUE DU LAC;commune;commune;1;64023000ZC0006|64023000ZC0087|640230000B1729
64023_0030_00010;64023_0030;10;;Rue du Lac;64510;64023;Angaïs;;;436408.73;6242840.59;-0.243856;43.236028;logement;;;ANGAIS;RUE DU LAC;commune;commune;1;640230000B1150
64023_0020_00001;64023_0020;1;;Rue de la Gare;64510;64023;Angaïs;;;435427.38;6243262.19;-0.256133;43.239454;logement;;;ANGAIS;RUE DE LA GARE;commune;commune;1;640230000B0816|640230000B0815
64023_0020_00002;64023_0020;2;;Rue de la Gare;64510;64023;Angaïs;;;435395.64;6243281.42;-0.256533;43.239615;logement;;;ANGAIS;RUE DE LA GARE;commune;commune;1;640230000B1896
64023_0020_00004;64023_0020;4;;Rue de la Gare;64510;64023;Angaïs;;;435362.94;6243247.94;-0.256918;43.239302;logement;;;ANGAIS;RUE DE LA GARE;commune;commune;1;640230000B1871|640230000B1168
64023_0020_00006;64023_0020;6;;Rue de la Gare;64510;64023;Angaïs;;;435322.19;6243161.39;-0.257375;43.238509;logement;;;ANGAIS;RUE DE LA GARE;commune;commune;1;640230000B1708|640230000B1564
64023_0020_00008;64023_0020;8;;Rue de la Gare;64510;64023;Angaïs;;;435271.29;6243110.75;-0.257975;43.238035;logement;;;ANGAIS;RUE DE LA GARE;commune;commune;1;640230000B1642
64023_0020_00010;64023_0020;10;;Rue de la Gare;64510;64023;Angaïs;;;435243.78;6243100.54;-0.258308;43.237933;logement;;;ANGAIS;RUE DE LA GARE;commune;commune;1;640230000B1889
64023_0020_00011;64023_0020;11;;Rue de la Gare;64510;64023;Angaïs;;;435195.46;6242968.68;-0.258835;43.23673;logement;;;ANGAIS;RUE DE LA GARE;commune;commune;1;640230000B1107
64023_0020_00012;64023_0020;12;;Rue de la Gare;64510;64023;Angaïs;;;435226.21;6243086.69;-0.258517;43.237802;logement;;;ANGAIS;RUE DE LA GARE;commune;commune;1;640230000B1950
64023_0020_00013;64023_0020;13;;Rue de la Gare;64510;64023;Angaïs;;;435183.26;6242954.94;-0.258978;43.236602;logement;;;ANGAIS;RUE DE LA GARE;commune;commune;1;640230000B1106
64023_0020_00014;64023_0020;14;;Rue de la Gare;64510;64023;Angaïs;;;435201.49;6243061.34;-0.258808;43.237565;logement;;;ANGAIS;RUE DE LA GARE;commune;commune;1;640230000B1949
64023_0020_00016;64023_0020;16;;Rue de la Gare;64510;64023;Angaïs;;;435183.57;6243041.16;-0.259018;43.237377;logement;;;ANGAIS;RUE DE LA GARE;commune;commune;1;640230000B1196|640230000B0434|640230000B1682
64023_0020_00017;64023_0020;17;;Rue de la Gare;64510;64023;Angaïs;;;435068.34;6242829.4;-0.260327;43.235431;logement;;;ANGAIS;RUE DE LA GARE;commune;commune;1;64023000ZA0124
64023_0020_00018;64023_0020;18;;Rue de la Gare;64510;64023;Angaïs;;;435171.59;6243007.05;-0.259148;43.237066;logement;;;ANGAIS;RUE DE LA GARE;commune;commune;1;640230000B1885|640230000B1887
64023_0020_00020;64023_0020;20;;Rue de la Gare;64510;64023;Angaïs;;;435142.86;6242981.2;-0.259488;43.236823;logement;;;ANGAIS;RUE DE LA GARE;commune;commune;1;640230000B1675
64023_0020_00021;64023_0020;21;;Rue de la Gare;64510;64023;Angaïs;;;435029.07;6242761.03;-0.260775;43.234802;logement;;;ANGAIS;RUE DE LA GARE;commune;commune;1;64023000ZA0148
64023_0020_00024;64023_0020;24;;Rue de la Gare;64510;64023;Angaïs;;;435104.33;6242919.04;-0.25993;43.23625;logement;;;ANGAIS;RUE DE LA GARE;commune;commune;1;640230000B1414
64023_0020_00026;64023_0020;26;;Rue de la Gare;64510;64023;Angaïs;;;435034.61;6242867.62;-0.260761;43.235762;logement;;;ANGAIS;RUE DE LA GARE;commune;commune;1;640230000B0431
64023_0020_00004_bis;64023_0020;4;bis;Rue de la Gare;64510;64023;Angaïs;;;435357.88;6243210.1;-0.256961;43.23896;logement;;;ANGAIS;RUE DE LA GARE;commune;commune;1;640230000B1872
64023_0020_00016_bis;64023_0020;16;bis;Rue de la Gare;64510;64023;Angaïs;;;435141.35;6243035.34;-0.259534;43.237309;logement;;;ANGAIS;RUE DE LA GARE;commune;commune;1;640230000B1886|640230000B1888
64023_0020_00002_bis;64023_0020;2;bis;Rue de la Gare;64510;64023;Angaïs;;;435397.49;6243265.32;-0.256502;43.239471;logement;;;ANGAIS;RUE DE LA GARE;commune;commune;1;640230000B1896
64023_0078_00002;64023_0078;2;;Place du Prat;64510;64023;Angaïs;;;436005.7;6242895.55;-0.248838;43.236373;logement;;;ANGAIS;PLACE DU PRAT;commune;commune;1;640230000B0616|640230000B0617
64023_0078_00004;64023_0078;4;;Place du Prat;64510;64023;Angaïs;;;436027.46;6242906.34;-0.248576;43.236478;logement;;;ANGAIS;PLACE DU PRAT;commune;commune;1;640230000B0614|640230000B0612|640230000B0613
64023_0085_00001;64023_0085;1;;Rue du Vignemale;64510;64023;Angaïs;;;435731.86;6242567.47;-0.252038;43.233323;logement;;;ANGAIS;RUE DU VIGNEMALE;commune;commune;1;640230000B1211
64023_0085_00002;64023_0085;2;;Rue du Vignemale;64510;64023;Angaïs;;;435662.26;6242528.84;-0.252874;43.23295;logement;;;ANGAIS;RUE DU VIGNEMALE;commune;commune;1;640230000B0959|640230000B0960
64023_0085_00004;64023_0085;4;;Rue du Vignemale;64510;64023;Angaïs;;;435636.25;6242497.87;-0.253178;43.232662;logement;;;ANGAIS;RUE DU VIGNEMALE;commune;commune;1;640230000B0956|640230000B0955|640230000B0957|640230000B0958
64023_0085_00005;64023_0085;5;;Rue du Vignemale;64510;64023;Angaïs;;;435703.22;6242508.13;-0.25236;43.232779;logement;;;ANGAIS;RUE DU VIGNEMALE;commune;commune;1;640230000B1140
64023_0085_00007;64023_0085;7;;Rue du Vignemale;64510;64023;Angaïs;;;435689.87;6242486.2;-0.252513;43.232577;logement;;;ANGAIS;RUE DU VIGNEMALE;commune;commune;1;640230000B1532
64023_0085_00012;64023_0085;12;;Rue du Vignemale;64510;64023;Angaïs;;;435525.66;6242404.4;-0.25449;43.231781;logement;;;ANGAIS;RUE DU VIGNEMALE;commune;commune;1;640230000B1352
64023_a018_00001;64023_A018;1;;Lotissement de la Chataigneraie;64510;64023;Angaïs;;;436559.16;6241937.95;-0.241551;43.227971;logement;;;ANGAIS;LOTISSEMENT DE LA CHATAIGNERAIE;commune;commune;1;640230000B1364|640230000B1369
64023_a018_00002;64023_A018;2;;Lotissement de la Chataigneraie;64510;64023;Angaïs;;;436586.56;6241953.29;-0.241222;43.228119;logement;;;ANGAIS;LOTISSEMENT DE LA CHATAIGNERAIE;commune;commune;1;640230000B1368
64023_a018_00003;64023_A018;3;;Lotissement de la Chataigneraie;64510;64023;Angaïs;;;436545.27;6241972.12;-0.241739;43.228273;logement;;;ANGAIS;LOTISSEMENT DE LA CHATAIGNERAIE;commune;commune;1;640230000B1365|640230000B1369
64023_a018_00004;64023_A018;4;;Lotissement de la Chataigneraie;64510;64023;Angaïs;;;436572.41;6241985.14;-0.241412;43.2284;logement;;;ANGAIS;LOTISSEMENT DE LA CHATAIGNERAIE;commune;commune;1;640230000B1367
64023_a018_00005;64023_A018;5;;Lotissement de la Chataigneraie;64510;64023;Angaïs;;;436536.05;6242001.09;-0.241867;43.22853;logement;;;ANGAIS;LOTISSEMENT DE LA CHATAIGNERAIE;commune;commune;1;640230000B1366
64023_0013_00002;64023_0013;2;;Rue de la Chataigneraie;64510;64023;Angaïs;;;436651.26;6241957.64;-0.240429;43.228182;logement;;;ANGAIS;RUE DE LA CHATAIGNERAIE;commune;commune;1;640230000B1762
64023_0013_00004;64023_0013;4;;Rue de la Chataigneraie;64510;64023;Angaïs;;;436629.26;6241948.98;-0.240695;43.228096;logement;;;ANGAIS;RUE DE LA CHATAIGNERAIE;commune;commune;1;640230000B1584
64023_0013_00006;64023_0013;6;;Rue de la Chataigneraie;64510;64023;Angaïs;;;436516;6241917.25;-0.242071;43.227769;logement;;;ANGAIS;RUE DE LA CHATAIGNERAIE;commune;commune;1;640230000B1426
64023_0013_00008;64023_0013;8;;Rue de la Chataigneraie;64510;64023;Angaïs;;;436439.33;6241952;-0.243031;43.228053;logement;;;ANGAIS;RUE DE LA CHATAIGNERAIE;commune;commune;1;640230000B1774
64023_0013_00010;64023_0013;10;;Rue de la Chataigneraie;64510;64023;Angaïs;;;436459.91;6241910.32;-0.242757;43.227686;logement;;;ANGAIS;RUE DE LA CHATAIGNERAIE;commune;commune;1;640230000B1775|640230000B1773
64023_0013_00004_bis;64023_0013;4;bis;Rue de la Chataigneraie;64510;64023;Angaïs;;;436536.13;6241925.88;-0.241828;43.227854;logement;;;ANGAIS;RUE DE LA CHATAIGNERAIE;commune;commune;1;640230000B1208
64023_0013_00004_ter;64023_0013;4;ter;Rue de la Chataigneraie;64510;64023;Angaïs;;;436492.46;6241975.85;-0.24239;43.228287;logement;;;ANGAIS;RUE DE LA CHATAIGNERAIE;commune;commune;1;640230000B1425
64023_0013_00006_ter;64023_0013;6;ter;Rue de la Chataigneraie;64510;64023;Angaïs;;;436464.48;6241974.22;-0.242733;43.228262;logement;;;ANGAIS;RUE DE LA CHATAIGNERAIE;commune;commune;1;640230000B2056
64023_0010_00001;64023_0010;1;;Rue Carrérot des Lierres;64510;64023;Angaïs;;;435831.94;6242970.69;-0.251012;43.236984;logement;;;ANGAIS;RUE CARREROT DES LIERRES;commune;commune;1;
64023_0010_00002;64023_0010;2;;Rue Carrérot des Lierres;64510;64023;Angaïs;;;435796.35;6242944.01;-0.251436;43.236731;logement;;;ANGAIS;RUE CARREROT DES LIERRES;commune;commune;1;640230000B1005|640230000B0685
64023_0010_00004;64023_0010;4;;Rue Carrérot des Lierres;64510;64023;Angaïs;;;435853.41;6242936.98;-0.250731;43.236689;logement;;;ANGAIS;RUE CARREROT DES LIERRES;commune;commune;1;640230000B0694|640230000B0695
64023_0051_00001;64023_0051;1;;Rue Bertruc Camy;64510;64023;Angaïs;;;435139.67;6243144.22;-0.25961;43.238287;logement;;;ANGAIS;RUE BERTRUC CAMY;commune;commune;1;640230000B1788|640230000B1783
64023_0051_00002;64023_0051;2;;Rue Bertruc Camy;64510;64023;Angaïs;;;435064.87;6243127.51;-0.260521;43.238109;logement;;;ANGAIS;RUE BERTRUC CAMY;commune;commune;1;640230000B1777
64023_0051_00003;64023_0051;3;;Rue Bertruc Camy;64510;64023;Angaïs;;;435101.41;6243114.09;-0.260065;43.238002;logement;;;ANGAIS;RUE BERTRUC CAMY;commune;commune;1;640230000B1787|640230000B1782
64023_0051_00004;64023_0051;4;;Rue Bertruc Camy;64510;64023;Angaïs;;;435038.68;6243096.1;-0.260827;43.237817;logement;;;ANGAIS;RUE BERTRUC CAMY;commune;commune;1;640230000B1778
64023_0051_00005;64023_0051;5;;Rue Bertruc Camy;64510;64023;Angaïs;;;435072.83;6243084.01;-0.260401;43.237721;logement;;;ANGAIS;RUE BERTRUC CAMY;commune;commune;1;640230000B1786|640230000B1781
64023_0051_00006;64023_0051;6;;Rue Bertruc Camy;64510;64023;Angaïs;;;435055.02;6243064.38;-0.26061;43.237538;logement;;;ANGAIS;RUE BERTRUC CAMY;commune;commune;1;640230000B1784|640230000B1779
64023_a047_00001;64023_A047;1;;Lotissement Pierre Bordenave;64510;64023;Angaïs;;;435356.27;6242806.49;-0.256776;43.235332;logement;;;ANGAIS;LOTISSEMENT PIERRE BORDENAVE;commune;commune;1;64023000ZA0152
64023_a047_00002;64023_A047;2;;Lotissement Pierre Bordenave;64510;64023;Angaïs;;;435329.5;6242830.07;-0.257117;43.235534;logement;;;ANGAIS;LOTISSEMENT PIERRE BORDENAVE;commune;commune;1;64023000ZA0153
64023_a047_00004;64023_A047;4;;Lotissement Pierre Bordenave;64510;64023;Angaïs;;;435302.16;6242778.57;-0.257427;43.235061;logement;;;ANGAIS;LOTISSEMENT PIERRE BORDENAVE;commune;commune;1;64023000ZA0155
64023_a047_00005;64023_A047;5;;Lotissement Pierre Bordenave;64510;64023;Angaïs;;;435277.21;6242802.97;-0.257746;43.235271;logement;;;ANGAIS;LOTISSEMENT PIERRE BORDENAVE;commune;commune;1;64023000ZA0156
64023_0008_00001;64023_0008;1;;Rue Bonnecaze;64510;64023;Angaïs;;;435809.51;6242236.49;-0.250916;43.230377;logement;;;ANGAIS;RUE BONNECAZE;commune;commune;1;640230000B1359
64023_0008_00002;64023_0008;2;;Rue Bonnecaze;64510;64023;Angaïs;;;435780.22;6242218.67;-0.251267;43.230206;logement;;;ANGAIS;RUE BONNECAZE;commune;commune;1;640230000B1360
64023_0008_00003;64023_0008;3;;Rue Bonnecaze;64510;64023;Angaïs;;;435758.32;6242202.55;-0.251528;43.230053;logement;;;ANGAIS;RUE BONNECAZE;commune;commune;1;640230000B1361
64023_0008_00004;64023_0008;4;;Rue Bonnecaze;64510;64023;Angaïs;;;435730.33;6242172.88;-0.251857;43.229776;logement;;;ANGAIS;RUE BONNECAZE;commune;commune;1;640230000B1362
64023_0053_00003;64023_0053;3;;Impasse des Pyrénées;64510;64023;Angaïs;;;435771.77;6242063.02;-0.251292;43.228804;logement;;;ANGAIS;IMPASSE DES PYRENEES;commune;commune;1;640230000B1769
